{
 "type": "FeatureCollection",
 "crs": {
  "type": "name",
  "properties": {
   "name": "urn:ogc:def:crs:EPSG::25830"
  }
 },
 "features": [
  {
   "type": "Feature",
   "properties": {
    "beginLifespanVersion": "2012-09-28T00:00:00",
    "conditionOfConstruction": "functional",
    "addresses": "http://ovc.catastro.meh.es/INSPIRE/wfsAD.aspx?service=wfs&version=2&request=GetFeature&STOREDQUERIE_ID=GetadByRefcat&refcat=7773605VK3777D&srsname=EPSG::25830",
    "cadastralParcels": "http://ovc.catastro.meh.es/INSPIRE/wfsCP.aspx?service=wfs&version=2&request=GetFeature&STOREDQUERIE_ID=GetParcel&refcat=7773605VK3777D&srsname=EPSG::25830",
    "currentUse": "4_3_publicServices",
    "numberOfBuildingUnits": "2",
    "numberOfDwellings": "0",
    "localId": "7773605VK3777D",
    "dateOfConstruction_beginning": "1990-01-01T00:00:00",
    "reference": "7773605VK3777D",
    "value": "56851"
   },
   "geometry": {
    "type": "MultiPolygon",
    "coordinates": [
     [
      [
       [
        437635.28,
        4477080.29
       ],
       [
        437632.65,
        4477082.88
       ],
       [
        437639.66,
        4477090.0
       ],
       [
        437642.29,
        4477087.41
       ],
       [
        437635.28,
        4477080.29
       ]
      ]
     ],
     [
      [
       [
        437649.89,
        4477079.91
       ],
       [
        437653.12,
        4477076.73
       ],
       [
        437646.11,
        4477069.61
       ],
       [
        437642.88,
        4477072.8
       ],
       [
        437649.89,
        4477079.91
       ]
      ]
     ],
     [
      [
       [
        437732.25,
        4477245.8
       ],
       [
        437736.08,
        4477235.16
       ],
       [
        437727.5,
        4477232.07
       ],
       [
        437724.49,
        4477240.44
       ],
       [
        437730.01,
        4477242.43
       ],
       [
        437732.25,
        4477245.8
       ]
      ]
     ],
     [
      [
       [
        437737.82,
        4477198.19
       ],
       [
        437724.72,
        4477207.68
       ],
       [
        437724.62,
        4477209.7
       ],
       [
        437738.66,
        4477208.57
       ],
       [
        437737.82,
        4477198.19
       ]
      ]
     ],
     [
      [
       [
        437752.27,
        4477242.26
       ],
       [
        437751.66,
        4477243.9
       ],
       [
        437751.66,
        4477244.46
       ],
       [
        437751.85,
        4477244.98
       ],
       [
        437752.21,
        4477245.39
       ],
       [
        437752.63,
        4477245.63
       ],
       [
        437753.25,
        4477245.72
       ],
       [
        437753.63,
        4477245.63
       ],
       [
        437753.79,
        4477245.59
       ],
       [
        437754.24,
        4477245.28
       ],
       [
        437754.56,
        4477244.82
       ],
       [
        437755.12,
        4477243.36
       ],
       [
        437757.0,
        4477244.09
       ],
       [
        437756.04,
        4477246.57
       ],
       [
        437755.41,
        4477248.2
       ],
       [
        437756.87,
        4477251.56
       ],
       [
        437753.34,
        4477253.08
       ],
       [
        437754.17,
        4477255.0
       ],
       [
        437756.27,
        4477259.86
       ],
       [
        437761.8,
        4477262.06
       ],
       [
        437762.76,
        4477262.44
       ],
       [
        437760.98,
        4477266.93
       ],
       [
        437766.0,
        4477268.92
       ],
       [
        437784.24,
        4477276.14
       ],
       [
        437789.19,
        4477278.1
       ],
       [
        437787.12,
        4477283.35
       ],
       [
        437758.9,
        4477272.17
       ],
       [
        437757.04,
        4477276.88
       ],
       [
        437761.96,
        4477288.88
       ],
       [
        437771.11,
        4477309.98
       ],
       [
        437785.56,
        4477315.76
       ],
       [
        437781.56,
        4477323.14
       ],
       [
        437815.41,
        4477344.25
       ],
       [
        437855.75,
        4477293.37
       ],
       [
        437891.08,
        4477273.77
       ],
       [
        437917.36,
        4477248.29
       ],
       [
        437950.81,
        4477200.51
       ],
       [
        437885.1,
        4477044.43
       ],
       [
        437806.25,
        4477050.0
       ],
       [
        437787.58,
        4477097.01
       ],
       [
        437778.25,
        4477093.21
       ],
       [
        437772.63,
        4477107.03
       ],
       [
        437781.96,
        4477110.83
       ],
       [
        437777.98,
        4477124.46
       ],
       [
        437777.39,
        4477126.75
       ],
       [
        437777.0,
        4477129.09
       ],
       [
        437776.82,
        4477131.45
       ],
       [
        437776.85,
        4477133.81
       ],
       [
        437777.08,
        4477136.17
       ],
       [
        437777.51,
        4477138.5
       ],
       [
        437778.15,
        4477140.78
       ],
       [
        437778.98,
        4477142.99
       ],
       [
        437780.0,
        4477145.13
       ],
       [
        437781.21,
        4477147.16
       ],
       [
        437782.58,
        4477149.09
       ],
       [
        437784.12,
        4477150.89
       ],
       [
        437784.75,
        4477151.53
       ],
       [
        437800.01,
        4477163.48
       ],
       [
        437785.03,
        4477201.27
       ],
       [
        437783.33,
        4477205.56
       ],
       [
        437778.46,
        4477203.68
       ],
       [
        437780.3,
        4477198.92
       ],
       [
        437792.93,
        4477166.28
       ],
       [
        437788.02,
        4477164.38
       ],
       [
        437788.53,
        4477163.05
       ],
       [
        437788.58,
        4477162.86
       ],
       [
        437788.59,
        4477162.31
       ],
       [
        437788.4,
        4477161.79
       ],
       [
        437788.03,
        4477161.38
       ],
       [
        437787.59,
        4477161.13
       ],
       [
        437787.0,
        4477161.05
       ],
       [
        437786.46,
        4477161.18
       ],
       [
        437786.01,
        4477161.5
       ],
       [
        437785.69,
        4477161.95
       ],
       [
        437785.18,
        4477163.28
       ],
       [
        437783.22,
        4477162.52
       ],
       [
        437778.23,
        4477160.59
       ],
       [
        437756.59,
        4477216.53
       ],
       [
        437748.99,
        4477219.89
       ],
       [
        437748.63,
        4477220.09
       ],
       [
        437748.08,
        4477220.57
       ],
       [
        437747.67,
        4477221.18
       ],
       [
        437747.56,
        4477221.48
       ],
       [
        437747.45,
        4477221.88
       ],
       [
        437747.42,
        4477222.61
       ],
       [
        437747.59,
        4477223.32
       ],
       [
        437750.99,
        4477231.01
       ],
       [
        437747.37,
        4477240.37
       ],
       [
        437752.27,
        4477242.26
       ]
      ],
      [
       [
        437774.77,
        4477213.23
       ],
       [
        437776.66,
        4477208.35
       ],
       [
        437781.49,
        4477210.21
       ],
       [
        437779.45,
        4477215.36
       ],
       [
        437772.24,
        4477233.55
       ],
       [
        437766.61,
        4477247.76
       ],
       [
        437762.09,
        4477246.01
       ],
       [
        437774.77,
        4477213.23
       ]
      ],
      [
       [
        437764.9,
        4477252.06
       ],
       [
        437766.67,
        4477252.76
       ],
       [
        437764.76,
        4477257.58
       ],
       [
        437763.73,
        4477257.17
       ],
       [
        437762.99,
        4477256.88
       ],
       [
        437764.9,
        4477252.06
       ]
      ]
     ],
     [
      [
       [
        437773.97,
        4477332.56
       ],
       [
        437776.85,
        4477329.91
       ],
       [
        437775.41,
        4477324.74
       ],
       [
        437770.74,
        4477329.06
       ],
       [
        437773.97,
        4477332.56
       ]
      ]
     ]
    ]
   }
  },
  {
   "type": "Feature",
   "properties": {
    "beginLifespanVersion": "2016-12-07T00:00:00",
    "conditionOfConstruction": "functional",
    "addresses": "http://ovc.catastro.meh.es/INSPIRE/wfsAD.aspx?service=wfs&version=2&request=GetFeature&STOREDQUERIE_ID=GetadByRefcat&refcat=7773606VK3777D&srsname=EPSG::25830",
    "cadastralParcels": "http://ovc.catastro.meh.es/INSPIRE/wfsCP.aspx?service=wfs&version=2&request=GetFeature&STOREDQUERIE_ID=GetParcel&refcat=7773606VK3777D&srsname=EPSG::25830",
    "currentUse": "4_3_publicServices",
    "numberOfBuildingUnits": "1",
    "numberOfDwellings": "0",
    "localId": "7773606VK3777D",
    "dateOfConstruction_beginning": "1969-01-01T00:00:00",
    "reference": "7773606VK3777D",
    "value": "30465"
   },
   "geometry": {
    "type": "MultiPolygon",
    "coordinates": [
     [
      [
       [
        437703.03,
        4476892.55
       ],
       [
        437707.39,
        4476892.09
       ],
       [
        437720.54,
        4476890.69
       ],
       [
        437721.28,
        4476897.25
       ],
       [
        437722.05,
        4476904.21
       ],
       [
        437714.89,
        4476904.96
       ],
       [
        437716.11,
        4476915.64
       ],
       [
        437779.11,
        4476908.95
       ],
       [
        437777.53,
        4476894.55
       ],
       [
        437773.56,
        4476894.99
       ],
       [
        437771.81,
        4476895.24
       ],
       [
        437766.95,
        4476895.94
       ],
       [
        437766.51,
        4476890.48
       ],
       [
        437765.88,
        4476885.66
       ],
       [
        437770.86,
        4476885.19
       ],
       [
        437772.87,
        4476885.0
       ],
       [
        437772.5,
        4476881.51
       ],
       [
        437779.46,
        4476880.77
       ],
       [
        437810.72,
        4476877.43
       ],
       [
        437808.98,
        4476860.85
       ],
       [
        437808.84,
        4476859.49
       ],
       [
        437803.16,
        4476860.13
       ],
       [
        437799.72,
        4476825.77
       ],
       [
        437805.24,
        4476825.17
       ],
       [
        437805.09,
        4476823.77
       ],
       [
        437803.36,
        4476807.24
       ],
       [
        437768.69,
        4476810.83
       ],
       [
        437768.13,
        4476805.6
       ],
       [
        437754.22,
        4476806.93
       ],
       [
        437750.24,
        4476807.31
       ],
       [
        437750.46,
        4476809.41
       ],
       [
        437747.06,
        4476809.79
       ],
       [
        437730.26,
        4476811.66
       ],
       [
        437718.99,
        4476812.91
       ],
       [
        437721.44,
        4476834.27
       ],
       [
        437728.67,
        4476833.48
       ],
       [
        437745.41,
        4476831.57
       ],
       [
        437746.42,
        4476842.07
       ],
       [
        437750.66,
        4476841.56
       ],
       [
        437752.75,
        4476862.83
       ],
       [
        437748.39,
        4476863.22
       ],
       [
        437749.0,
        4476868.51
       ],
       [
        437735.32,
        4476869.96
       ],
       [
        437735.29,
        4476869.67
       ],
       [
        437727.34,
        4476870.53
       ],
       [
        437727.37,
        4476870.82
       ],
       [
        437699.96,
        4476873.8
       ],
       [
        437701.98,
        4476894.45
       ],
       [
        437703.23,
        4476894.43
       ],
       [
        437703.03,
        4476892.55
       ]
      ],
      [
       [
        437755.59,
        4476886.8
       ],
       [
        437756.68,
        4476897.64
       ],
       [
        437756.96,
        4476900.47
       ],
       [
        437729.17,
        4476903.45
       ],
       [
        437727.53,
        4476889.91
       ],
       [
        437755.59,
        4476886.8
       ]
      ],
      [
       [
        437763.48,
        4476826.14
       ],
       [
        437763.79,
        4476829.63
       ],
       [
        437760.3,
        4476829.94
       ],
       [
        437760.29,
        4476829.33
       ],
       [
        437760.39,
        4476828.72
       ],
       [
        437760.48,
        4476828.43
       ],
       [
        437760.74,
        4476827.87
       ],
       [
        437761.09,
        4476827.37
       ],
       [
        437761.52,
        4476826.94
       ],
       [
        437762.02,
        4476826.59
       ],
       [
        437762.58,
        4476826.33
       ],
       [
        437762.88,
        4476826.24
       ],
       [
        437763.48,
        4476826.14
       ]
      ],
      [
       [
        437793.76,
        4476826.42
       ],
       [
        437794.05,
        4476829.35
       ],
       [
        437789.57,
        4476829.8
       ],
       [
        437790.64,
        4476840.51
       ],
       [
        437783.68,
        4476841.21
       ],
       [
        437783.97,
        4476844.1
       ],
       [
        437784.38,
        4476848.18
       ],
       [
        437791.34,
        4476847.48
       ],
       [
        437792.41,
        4476858.19
       ],
       [
        437796.89,
        4476857.74
       ],
       [
        437797.2,
        4476860.8
       ],
       [
        437770.56,
        4476863.79
       ],
       [
        437769.02,
        4476849.73
       ],
       [
        437768.57,
        4476845.65
       ],
       [
        437766.78,
        4476829.36
       ],
       [
        437793.76,
        4476826.42
       ]
      ]
     ],
     [
      [
       [
        437738.0,
        4476955.72
       ],
       [
        437738.37,
        4476959.0
       ],
       [
        437740.79,
        4476980.85
       ],
       [
        437741.3,
        4476985.45
       ],
       [
        437743.72,
        4477007.35
       ],
       [
        437744.09,
        4477010.69
       ],
       [
        437745.41,
        4477022.61
       ],
       [
        437772.99,
        4477019.55
       ],
       [
        437768.68,
        4476980.59
       ],
       [
        437800.49,
        4476977.18
       ],
       [
        437801.11,
        4476983.46
       ],
       [
        437803.0,
        4476983.27
       ],
       [
        437804.38,
        4476995.86
       ],
       [
        437815.53,
        4476994.68
       ],
       [
        437813.92,
        4476980.77
       ],
       [
        437813.19,
        4476980.85
       ],
       [
        437812.59,
        4476975.61
       ],
       [
        437813.32,
        4476975.53
       ],
       [
        437812.64,
        4476969.7
       ],
       [
        437814.22,
        4476969.52
       ],
       [
        437819.39,
        4476966.22
       ],
       [
        437834.15,
        4476989.68
       ],
       [
        437847.91,
        4476981.02
       ],
       [
        437825.62,
        4476945.6
       ],
       [
        437814.76,
        4476952.44
       ],
       [
        437815.45,
        4476953.54
       ],
       [
        437810.23,
        4476956.87
       ],
       [
        437797.07,
        4476958.31
       ],
       [
        437795.48,
        4476958.48
       ],
       [
        437791.35,
        4476958.93
       ],
       [
        437766.58,
        4476961.64
       ],
       [
        437764.26,
        4476940.71
       ],
       [
        437736.68,
        4476943.77
       ],
       [
        437738.0,
        4476955.72
       ]
      ]
     ]
    ]
   }
  },
  {
   "type": "Feature",
   "properties": {
    "beginLifespanVersion": "2021-02-25T00:00:00",
    "conditionOfConstruction": "functional",
    "addresses": "http://ovc.catastro.meh.es/INSPIRE/wfsAD.aspx?service=wfs&version=2&request=GetFeature&STOREDQUERIE_ID=GetadByRefcat&refcat=7773607VK3777D&srsname=EPSG::25830",
    "cadastralParcels": "http://ovc.catastro.meh.es/INSPIRE/wfsCP.aspx?service=wfs&version=2&request=GetFeature&STOREDQUERIE_ID=GetParcel&refcat=7773607VK3777D&srsname=EPSG::25830",
    "currentUse": "4_3_publicServices",
    "numberOfBuildingUnits": "1",
    "numberOfDwellings": "0",
    "localId": "7773607VK3777D",
    "dateOfConstruction_beginning": "1989-01-01T00:00:00",
    "reference": "7773607VK3777D",
    "value": "16774"
   },
   "geometry": {
    "type": "Polygon",
    "coordinates": [
     [
      [
       437674.75,
       4477020.35
      ],
      [
       437676.36,
       4477020.43
      ],
      [
       437678.02,
       4477020.44
      ],
      [
       437679.69,
       4477020.38
      ],
      [
       437681.35,
       4477020.25
      ],
      [
       437683.0,
       4477020.04
      ],
      [
       437684.64,
       4477019.76
      ],
      [
       437686.27,
       4477019.41
      ],
      [
       437687.88,
       4477018.99
      ],
      [
       437688.82,
       4477018.7
      ],
      [
       437689.48,
       4477018.5
      ],
      [
       437691.04,
       4477017.95
      ],
      [
       437692.59,
       4477017.32
      ],
      [
       437694.1,
       4477016.63
      ],
      [
       437695.59,
       4477015.87
      ],
      [
       437697.03,
       4477015.05
      ],
      [
       437698.45,
       4477014.16
      ],
      [
       437699.82,
       4477013.22
      ],
      [
       437701.15,
       4477012.22
      ],
      [
       437702.43,
       4477011.16
      ],
      [
       437703.67,
       4477010.04
      ],
      [
       437704.85,
       4477008.87
      ],
      [
       437705.99,
       4477007.65
      ],
      [
       437707.07,
       4477006.39
      ],
      [
       437708.1,
       4477005.07
      ],
      [
       437709.06,
       4477003.72
      ],
      [
       437709.97,
       4477002.32
      ],
      [
       437710.81,
       4477000.89
      ],
      [
       437711.59,
       4476999.42
      ],
      [
       437712.31,
       4476997.91
      ],
      [
       437712.96,
       4476996.38
      ],
      [
       437713.55,
       4476994.82
      ],
      [
       437714.06,
       4476993.24
      ],
      [
       437714.51,
       4476991.63
      ],
      [
       437714.88,
       4476990.01
      ],
      [
       437715.19,
       4476988.37
      ],
      [
       437715.42,
       4476986.72
      ],
      [
       437715.58,
       4476985.06
      ],
      [
       437715.67,
       4476983.4
      ],
      [
       437715.68,
       4476981.74
      ],
      [
       437715.63,
       4476980.07
      ],
      [
       437715.5,
       4476978.41
      ],
      [
       437715.29,
       4476976.76
      ],
      [
       437715.02,
       4476975.12
      ],
      [
       437714.68,
       4476973.49
      ],
      [
       437714.26,
       4476971.87
      ],
      [
       437713.78,
       4476970.28
      ],
      [
       437713.22,
       4476968.71
      ],
      [
       437712.6,
       4476967.16
      ],
      [
       437711.91,
       4476965.65
      ],
      [
       437711.16,
       4476964.16
      ],
      [
       437710.34,
       4476962.71
      ],
      [
       437709.46,
       4476961.3
      ],
      [
       437708.52,
       4476959.92
      ],
      [
       437707.52,
       4476958.59
      ],
      [
       437706.46,
       4476957.31
      ],
      [
       437705.35,
       4476956.07
      ],
      [
       437704.19,
       4476954.88
      ],
      [
       437702.97,
       4476953.74
      ],
      [
       437701.71,
       4476952.65
      ],
      [
       437700.4,
       4476951.63
      ],
      [
       437699.04,
       4476950.66
      ],
      [
       437697.65,
       4476949.74
      ],
      [
       437696.21,
       4476948.9
      ],
      [
       437694.75,
       4476948.11
      ],
      [
       437693.24,
       4476947.39
      ],
      [
       437691.71,
       4476946.73
      ],
      [
       437690.16,
       4476946.15
      ],
      [
       437688.57,
       4476945.63
      ],
      [
       437686.97,
       4476945.18
      ],
      [
       437685.35,
       4476944.8
      ],
      [
       437681.96,
       4476947.02
      ],
      [
       437680.73,
       4476946.83
      ],
      [
       437679.49,
       4476946.71
      ],
      [
       437678.25,
       4476946.64
      ],
      [
       437677.01,
       4476946.62
      ],
      [
       437675.76,
       4476946.66
      ],
      [
       437674.53,
       4476946.75
      ],
      [
       437673.29,
       4476946.9
      ],
      [
       437672.07,
       4476947.1
      ],
      [
       437670.85,
       4476947.36
      ],
      [
       437669.65,
       4476947.67
      ],
      [
       437668.46,
       4476948.03
      ],
      [
       437667.29,
       4476948.45
      ],
      [
       437666.14,
       4476948.92
      ],
      [
       437662.13,
       4476947.18
      ],
      [
       437660.62,
       4476947.88
      ],
      [
       437659.14,
       4476948.65
      ],
      [
       437657.69,
       4476949.47
      ],
      [
       437656.29,
       4476950.37
      ],
      [
       437654.92,
       4476951.32
      ],
      [
       437653.6,
       4476952.33
      ],
      [
       437652.32,
       4476953.4
      ],
      [
       437651.09,
       4476954.52
      ],
      [
       437649.91,
       4476955.69
      ],
      [
       437648.78,
       4476956.92
      ],
      [
       437647.7,
       4476958.19
      ],
      [
       437646.68,
       4476959.51
      ],
      [
       437645.73,
       4476960.87
      ],
      [
       437644.83,
       4476962.27
      ],
      [
       437643.99,
       4476963.71
      ],
      [
       437643.21,
       4476965.18
      ],
      [
       437642.51,
       4476966.69
      ],
      [
       437641.86,
       4476968.23
      ],
      [
       437641.29,
       4476969.79
      ],
      [
       437640.78,
       4476971.38
      ],
      [
       437640.34,
       4476972.98
      ],
      [
       437639.98,
       4476974.61
      ],
      [
       437639.68,
       4476976.25
      ],
      [
       437639.46,
       4476977.9
      ],
      [
       437639.31,
       4476979.56
      ],
      [
       437639.23,
       4476981.22
      ],
      [
       437639.22,
       4476982.89
      ],
      [
       437639.29,
       4476984.55
      ],
      [
       437639.42,
       4476986.21
      ],
      [
       437639.63,
       4476987.86
      ],
      [
       437639.92,
       4476989.5
      ],
      [
       437640.27,
       4476991.13
      ],
      [
       437640.69,
       4476992.74
      ],
      [
       437641.19,
       4476994.33
      ],
      [
       437641.75,
       4476995.9
      ],
      [
       437642.38,
       4476997.44
      ],
      [
       437643.08,
       4476998.95
      ],
      [
       437643.84,
       4477000.43
      ],
      [
       437644.66,
       4477001.88
      ],
      [
       437645.55,
       4477003.29
      ],
      [
       437646.5,
       4477004.66
      ],
      [
       437647.51,
       4477005.99
      ],
      [
       437648.57,
       4477007.27
      ],
      [
       437649.69,
       4477008.5
      ],
      [
       437650.86,
       4477009.68
      ],
      [
       437652.08,
       4477010.82
      ],
      [
       437653.35,
       4477011.89
      ],
      [
       437654.67,
       4477012.92
      ],
      [
       437656.02,
       4477013.88
      ],
      [
       437657.42,
       4477014.78
      ],
      [
       437658.86,
       4477015.62
      ],
      [
       437660.33,
       4477016.4
      ],
      [
       437661.84,
       4477017.11
      ],
      [
       437663.37,
       4477017.76
      ],
      [
       437664.94,
       4477018.34
      ],
      [
       437666.52,
       4477018.85
      ],
      [
       437668.13,
       4477019.29
      ],
      [
       437669.75,
       4477019.66
      ],
      [
       437671.39,
       4477019.96
      ],
      [
       437673.04,
       4477020.19
      ],
      [
       437674.75,
       4477020.35
      ]
     ]
    ]
   }
  },
  {
   "type": "Feature",
   "properties": {
    "beginLifespanVersion": "2016-10-18T00:00:00",
    "conditionOfConstruction": "functional",
    "addresses": "http://ovc.catastro.meh.es/INSPIRE/wfsAD.aspx?service=wfs&version=2&request=GetFeature&STOREDQUERIE_ID=GetadByRefcat&refcat=7773608VK3777D&srsname=EPSG::25830",
    "cadastralParcels": "http://ovc.catastro.meh.es/INSPIRE/wfsCP.aspx?service=wfs&version=2&request=GetFeature&STOREDQUERIE_ID=GetParcel&refcat=7773608VK3777D&srsname=EPSG::25830",
    "currentUse": "3_industrial",
    "numberOfBuildingUnits": "1",
    "numberOfDwellings": "0",
    "localId": "7773608VK3777D",
    "dateOfConstruction_beginning": "1995-01-01T00:00:00",
    "reference": "7773608VK3777D",
    "value": "9189"
   },
   "geometry": {
    "type": "MultiPolygon",
    "coordinates": [
     [
      [
       [
        437406.97,
        4477035.47
       ],
       [
        437405.82,
        4477043.19
       ],
       [
        437410.76,
        4477043.93
       ],
       [
        437410.46,
        4477045.91
       ],
       [
        437416.74,
        4477046.85
       ],
       [
        437418.19,
        4477037.15
       ],
       [
        437406.97,
        4477035.47
       ]
      ]
     ],
     [
      [
       [
        437449.27,
        4476721.9
       ],
       [
        437441.05,
        4476719.45
       ],
       [
        437434.5,
        4476741.39
       ],
       [
        437442.72,
        4476743.84
       ],
       [
        437449.27,
        4476721.9
       ]
      ]
     ],
     [
      [
       [
        437440.97,
        4476712.12
       ],
       [
        437449.83,
        4476714.76
       ],
       [
        437450.76,
        4476711.64
       ],
       [
        437441.9,
        4476709.0
       ],
       [
        437440.97,
        4476712.12
       ]
      ]
     ],
     [
      [
       [
        437446.19,
        4477116.07
       ],
       [
        437441.54,
        4477116.01
       ],
       [
        437441.44,
        4477123.38
       ],
       [
        437446.09,
        4477123.44
       ],
       [
        437446.19,
        4477116.07
       ]
      ]
     ],
     [
      [
       [
        437442.1,
        4477095.79
       ],
       [
        437441.63,
        4477113.3
       ],
       [
        437457.59,
        4477113.73
       ],
       [
        437458.06,
        4477096.22
       ],
       [
        437442.1,
        4477095.79
       ]
      ]
     ],
     [
      [
       [
        437442.75,
        4477093.82
       ],
       [
        437447.22,
        4477093.78
       ],
       [
        437446.96,
        4477059.88
       ],
       [
        437442.48,
        4477059.92
       ],
       [
        437442.75,
        4477093.82
       ]
      ]
     ],
     [
      [
       [
        437468.21,
        4476749.09
       ],
       [
        437466.17,
        4476756.14
       ],
       [
        437490.32,
        4476762.91
       ],
       [
        437492.31,
        4476756.02
       ],
       [
        437489.83,
        4476755.3
       ],
       [
        437491.69,
        4476748.93
       ],
       [
        437492.56,
        4476749.17
       ],
       [
        437494.25,
        4476743.32
       ],
       [
        437493.38,
        4476743.08
       ],
       [
        437495.21,
        4476736.72
       ],
       [
        437497.7,
        4476737.37
       ],
       [
        437499.67,
        4476730.54
       ],
       [
        437475.5,
        4476723.69
       ],
       [
        437473.36,
        4476731.17
       ],
       [
        437454.2,
        4476725.19
       ],
       [
        437448.94,
        4476743.71
       ],
       [
        437468.21,
        4476749.09
       ]
      ]
     ],
     [
      [
       [
        437464.75,
        4477097.17
       ],
       [
        437464.62,
        4477081.41
       ],
       [
        437458.21,
        4477081.46
       ],
       [
        437458.28,
        4477091.27
       ],
       [
        437461.47,
        4477091.24
       ],
       [
        437461.51,
        4477097.2
       ],
       [
        437464.75,
        4477097.17
       ]
      ]
     ],
     [
      [
       [
        437458.28,
        4477076.15
       ],
       [
        437461.93,
        4477076.35
       ],
       [
        437462.69,
        4477062.71
       ],
       [
        437459.04,
        4477062.51
       ],
       [
        437458.28,
        4477076.15
       ]
      ]
     ],
     [
      [
       [
        437477.52,
        4476698.64
       ],
       [
        437475.61,
        4476701.63
       ],
       [
        437482.8,
        4476705.96
       ],
       [
        437488.24,
        4476709.24
       ],
       [
        437494.23,
        4476712.85
       ],
       [
        437496.08,
        4476709.85
       ],
       [
        437507.99,
        4476717.05
       ],
       [
        437519.16,
        4476698.81
       ],
       [
        437476.72,
        4476672.94
       ],
       [
        437465.51,
        4476691.38
       ],
       [
        437477.52,
        4476698.64
       ]
      ]
     ],
     [
      [
       [
        437467.51,
        4477116.06
       ],
       [
        437473.44,
        4477116.75
       ],
       [
        437477.16,
        4477085.04
       ],
       [
        437471.23,
        4477084.35
       ],
       [
        437467.51,
        4477116.06
       ]
      ]
     ],
     [
      [
       [
        437490.56,
        4477078.3
       ],
       [
        437496.1,
        4477077.87
       ],
       [
        437495.25,
        4477066.0
       ],
       [
        437494.59,
        4477056.73
       ],
       [
        437493.64,
        4477044.65
       ],
       [
        437486.77,
        4477045.28
       ],
       [
        437487.45,
        4477052.06
       ],
       [
        437474.22,
        4477053.21
       ],
       [
        437474.87,
        4477060.62
       ],
       [
        437490.65,
        4477059.44
       ],
       [
        437491.11,
        4477066.29
       ],
       [
        437491.56,
        4477072.91
       ],
       [
        437490.15,
        4477073.04
       ],
       [
        437473.82,
        4477074.38
       ],
       [
        437474.24,
        4477079.47
       ],
       [
        437490.56,
        4477078.3
       ]
      ]
     ],
     [
      [
       [
        437478.63,
        4477068.73
       ],
       [
        437478.12,
        4477062.49
       ],
       [
        437474.4,
        4477062.79
       ],
       [
        437474.91,
        4477069.03
       ],
       [
        437478.63,
        4477068.73
       ]
      ]
     ],
     [
      [
       [
        437477.21,
        4477105.15
       ],
       [
        437477.81,
        4477114.27
       ],
       [
        437483.34,
        4477113.91
       ],
       [
        437482.73,
        4477104.78
       ],
       [
        437477.21,
        4477105.15
       ]
      ]
     ],
     [
      [
       [
        437484.73,
        4477111.65
       ],
       [
        437492.77,
        4477111.12
       ],
       [
        437491.07,
        4477085.3
       ],
       [
        437483.03,
        4477085.83
       ],
       [
        437484.73,
        4477111.65
       ]
      ]
     ],
     [
      [
       [
        437494.98,
        4476679.22
       ],
       [
        437499.11,
        4476681.74
       ],
       [
        437505.74,
        4476685.8
       ],
       [
        437511.16,
        4476676.93
       ],
       [
        437504.59,
        4476672.89
       ],
       [
        437501.57,
        4476677.78
       ],
       [
        437497.46,
        4476675.14
       ],
       [
        437500.38,
        4476670.35
       ],
       [
        437503.6,
        4476665.08
       ],
       [
        437496.97,
        4476661.02
       ],
       [
        437488.38,
        4476675.18
       ],
       [
        437494.98,
        4476679.22
       ]
      ]
     ],
     [
      [
       [
        437494.42,
        4477097.37
       ],
       [
        437500.69,
        4477096.95
       ],
       [
        437499.86,
        4477084.36
       ],
       [
        437493.59,
        4477084.78
       ],
       [
        437494.42,
        4477097.37
       ]
      ]
     ],
     [
      [
       [
        437515.01,
        4477092.62
       ],
       [
        437523.93,
        4477092.03
       ],
       [
        437521.69,
        4477057.96
       ],
       [
        437512.77,
        4477058.55
       ],
       [
        437515.01,
        4477092.62
       ]
      ]
     ]
    ]
   }
  },
  {
   "type": "Feature",
   "properties": {
    "beginLifespanVersion": "2017-07-07T00:00:00",
    "conditionOfConstruction": "functional",
    "addresses": "http://ovc.catastro.meh.es/INSPIRE/wfsAD.aspx?service=wfs&version=2&request=GetFeature&STOREDQUERIE_ID=GetadByRefcat&refcat=7773609VK3777D&srsname=EPSG::25830",
    "cadastralParcels": "http://ovc.catastro.meh.es/INSPIRE/wfsCP.aspx?service=wfs&version=2&request=GetFeature&STOREDQUERIE_ID=GetParcel&refcat=7773609VK3777D&srsname=EPSG::25830",
    "currentUse": "4_3_publicServices",
    "numberOfBuildingUnits": "1",
    "numberOfDwellings": "0",
    "localId": "7773609VK3777D",
    "dateOfConstruction_beginning": "1971-01-01T00:00:00",
    "reference": "7773609VK3777D",
    "value": "110999"
   },
   "geometry": {
    "type": "MultiPolygon",
    "coordinates": [
     [
      [
       [
        437538.0,
        4476758.72
       ],
       [
        437532.26,
        4476756.94
       ],
       [
        437531.25,
        4476760.16
       ],
       [
        437537.0,
        4476761.95
       ],
       [
        437538.0,
        4476758.72
       ]
      ]
     ],
     [
      [
       [
        437548.21,
        4476722.83
       ],
       [
        437547.94,
        4476723.67
       ],
       [
        437555.08,
        4476725.97
       ],
       [
        437556.09,
        4476722.85
       ],
       [
        437553.47,
        4476715.85
       ],
       [
        437550.74,
        4476714.98
       ],
       [
        437548.21,
        4476722.83
       ]
      ]
     ],
     [
      [
       [
        437615.52,
        4476872.18
       ],
       [
        437620.68,
        4476876.61
       ],
       [
        437625.24,
        4476871.3
       ],
       [
        437620.08,
        4476866.87
       ],
       [
        437623.34,
        4476863.08
       ],
       [
        437625.69,
        4476860.35
       ],
       [
        437643.52,
        4476839.71
       ],
       [
        437683.63,
        4476793.26
       ],
       [
        437670.44,
        4476782.14
       ],
       [
        437664.16,
        4476789.13
       ],
       [
        437642.96,
        4476771.11
       ],
       [
        437637.87,
        4476776.92
       ],
       [
        437651.45,
        4476788.66
       ],
       [
        437645.47,
        4476795.53
       ],
       [
        437635.08,
        4476786.6
       ],
       [
        437629.94,
        4476792.56
       ],
       [
        437640.37,
        4476801.68
       ],
       [
        437634.15,
        4476808.61
       ],
       [
        437627.03,
        4476802.43
       ],
       [
        437621.82,
        4476808.32
       ],
       [
        437646.35,
        4476829.32
       ],
       [
        437639.83,
        4476836.73
       ],
       [
        437636.64,
        4476840.36
       ],
       [
        437634.97,
        4476838.82
       ],
       [
        437636.54,
        4476837.14
       ],
       [
        437633.6,
        4476834.27
       ],
       [
        437630.21,
        4476838.1
       ],
       [
        437611.28,
        4476821.68
       ],
       [
        437607.45,
        4476826.01
       ],
       [
        437606.45,
        4476825.16
       ],
       [
        437599.14,
        4476833.16
       ],
       [
        437604.17,
        4476837.55
       ],
       [
        437608.15,
        4476832.74
       ],
       [
        437624.96,
        4476847.53
       ],
       [
        437618.85,
        4476854.47
       ],
       [
        437622.88,
        4476857.94
       ],
       [
        437620.54,
        4476860.67
       ],
       [
        437613.04,
        4476854.22
       ],
       [
        437606.57,
        4476848.66
       ],
       [
        437589.03,
        4476833.58
       ],
       [
        437585.89,
        4476830.88
       ],
       [
        437580.99,
        4476826.67
       ],
       [
        437574.52,
        4476821.11
       ],
       [
        437567.19,
        4476814.81
       ],
       [
        437564.53,
        4476812.52
       ],
       [
        437553.45,
        4476825.42
       ],
       [
        437612.26,
        4476875.97
       ],
       [
        437615.52,
        4476872.18
       ]
      ],
      [
       [
        437641.24,
        4476804.04
       ],
       [
        437643.14,
        4476805.68
       ],
       [
        437640.61,
        4476808.65
       ],
       [
        437646.96,
        4476813.97
       ],
       [
        437644.19,
        4476817.23
       ],
       [
        437635.85,
        4476810.07
       ],
       [
        437641.24,
        4476804.04
       ]
      ]
     ],
     [
      [
       [
        437571.17,
        4476702.39
       ],
       [
        437568.24,
        4476711.58
       ],
       [
        437595.97,
        4476720.33
       ],
       [
        437597.57,
        4476715.41
       ],
       [
        437593.28,
        4476713.97
       ],
       [
        437594.55,
        4476709.8
       ],
       [
        437571.17,
        4476702.39
       ]
      ]
     ],
     [
      [
       [
        437599.8,
        4476632.17
       ],
       [
        437615.86,
        4476637.23
       ],
       [
        437615.12,
        4476639.63
       ],
       [
        437614.35,
        4476642.06
       ],
       [
        437615.35,
        4476642.38
       ],
       [
        437613.0,
        4476649.45
       ],
       [
        437618.44,
        4476651.27
       ],
       [
        437619.48,
        4476648.09
       ],
       [
        437620.76,
        4476644.12
       ],
       [
        437621.69,
        4476641.16
       ],
       [
        437635.98,
        4476645.67
       ],
       [
        437654.88,
        4476585.8
       ],
       [
        437656.34,
        4476581.18
       ],
       [
        437637.27,
        4476575.15
       ],
       [
        437635.81,
        4476579.78
       ],
       [
        437632.16,
        4476591.35
       ],
       [
        437630.53,
        4476590.83
       ],
       [
        437629.74,
        4476593.3
       ],
       [
        437613.68,
        4476588.24
       ],
       [
        437614.47,
        4476585.76
       ],
       [
        437608.07,
        4476583.74
       ],
       [
        437607.29,
        4476586.22
       ],
       [
        437593.69,
        4476629.28
       ],
       [
        437593.41,
        4476630.15
       ],
       [
        437592.66,
        4476632.54
       ],
       [
        437599.05,
        4476634.56
       ],
       [
        437599.8,
        4476632.17
       ]
      ]
     ],
     [
      [
       [
        437696.95,
        4476434.46
       ],
       [
        437696.7,
        4476434.97
       ],
       [
        437700.87,
        4476436.49
       ],
       [
        437702.11,
        4476436.96
       ],
       [
        437706.17,
        4476438.51
       ],
       [
        437707.1,
        4476438.86
       ],
       [
        437710.61,
        4476440.95
       ],
       [
        437714.63,
        4476441.72
       ],
       [
        437715.59,
        4476442.08
       ],
       [
        437725.0,
        4476445.65
       ],
       [
        437728.61,
        4476436.24
       ],
       [
        437725.0,
        4476434.25
       ],
       [
        437721.14,
        4476433.43
       ],
       [
        437720.17,
        4476433.06
       ],
       [
        437709.26,
        4476428.94
       ],
       [
        437708.25,
        4476428.56
       ],
       [
        437705.63,
        4476427.41
       ],
       [
        437704.26,
        4476426.92
       ],
       [
        437706.93,
        4476422.21
       ],
       [
        437707.59,
        4476418.41
       ],
       [
        437707.19,
        4476418.06
       ],
       [
        437707.63,
        4476416.94
       ],
       [
        437708.09,
        4476417.13
       ],
       [
        437712.32,
        4476406.32
       ],
       [
        437711.85,
        4476406.15
       ],
       [
        437712.27,
        4476405.06
       ],
       [
        437712.74,
        4476405.26
       ],
       [
        437714.73,
        4476401.86
       ],
       [
        437715.52,
        4476398.13
       ],
       [
        437717.1,
        4476394.09
       ],
       [
        437713.23,
        4476392.48
       ],
       [
        437708.57,
        4476390.68
       ],
       [
        437707.8,
        4476392.86
       ],
       [
        437706.95,
        4476392.46
       ],
       [
        437702.75,
        4476403.31
       ],
       [
        437703.19,
        4476403.47
       ],
       [
        437702.81,
        4476404.49
       ],
       [
        437702.36,
        4476404.32
       ],
       [
        437700.22,
        4476407.93
       ],
       [
        437699.46,
        4476411.8
       ],
       [
        437699.93,
        4476411.97
       ],
       [
        437699.54,
        4476412.99
       ],
       [
        437699.07,
        4476412.81
       ],
       [
        437694.95,
        4476423.3
       ],
       [
        437695.45,
        4476423.49
       ],
       [
        437694.95,
        4476424.89
       ],
       [
        437694.44,
        4476424.75
       ],
       [
        437692.34,
        4476428.3
       ],
       [
        437691.49,
        4476432.37
       ],
       [
        437696.95,
        4476434.46
       ]
      ]
     ],
     [
      [
       [
        437728.66,
        4476499.49
       ],
       [
        437768.92,
        4476512.07
       ],
       [
        437784.93,
        4476462.14
       ],
       [
        437744.33,
        4476449.56
       ],
       [
        437728.66,
        4476499.49
       ]
      ]
     ],
     [
      [
       [
        437788.67,
        4476443.61
       ],
       [
        437812.71,
        4476451.1
       ],
       [
        437811.69,
        4476453.98
       ],
       [
        437845.1,
        4476464.66
       ],
       [
        437858.64,
        4476422.21
       ],
       [
        437799.7,
        4476403.25
       ],
       [
        437741.15,
        4476384.43
       ],
       [
        437729.95,
        4476425.33
       ],
       [
        437788.67,
        4476443.61
       ]
      ]
     ],
     [
      [
       [
        437805.64,
        4476707.22
       ],
       [
        437810.64,
        4476716.12
       ],
       [
        437814.1,
        4476714.12
       ],
       [
        437814.6,
        4476714.99
       ],
       [
        437820.96,
        4476711.31
       ],
       [
        437823.83,
        4476716.41
       ],
       [
        437830.75,
        4476712.55
       ],
       [
        437828.0,
        4476707.23
       ],
       [
        437831.91,
        4476704.97
       ],
       [
        437831.41,
        4476704.1
       ],
       [
        437835.74,
        4476701.59
       ],
       [
        437836.25,
        4476701.13
       ],
       [
        437836.71,
        4476700.63
       ],
       [
        437837.12,
        4476700.08
       ],
       [
        437837.48,
        4476699.5
       ],
       [
        437837.79,
        4476698.88
       ],
       [
        437838.03,
        4476698.24
       ],
       [
        437838.51,
        4476696.68
       ],
       [
        437839.46,
        4476696.98
       ],
       [
        437844.36,
        4476681.22
       ],
       [
        437843.4,
        4476680.92
       ],
       [
        437844.28,
        4476678.05
       ],
       [
        437854.84,
        4476681.33
       ],
       [
        437858.38,
        4476670.01
       ],
       [
        437862.92,
        4476655.42
       ],
       [
        437861.92,
        4476655.11
       ],
       [
        437863.62,
        4476649.66
       ],
       [
        437871.9,
        4476652.37
       ],
       [
        437873.86,
        4476646.55
       ],
       [
        437865.44,
        4476643.85
       ],
       [
        437871.64,
        4476624.06
       ],
       [
        437850.08,
        4476617.23
       ],
       [
        437852.89,
        4476607.52
       ],
       [
        437851.07,
        4476606.95
       ],
       [
        437845.73,
        4476605.26
       ],
       [
        437825.31,
        4476598.79
       ],
       [
        437813.96,
        4476634.65
       ],
       [
        437812.38,
        4476639.66
       ],
       [
        437824.26,
        4476643.37
       ],
       [
        437819.72,
        4476657.96
       ],
       [
        437854.38,
        4476668.77
       ],
       [
        437851.92,
        4476676.6
       ],
       [
        437835.8,
        4476671.57
       ],
       [
        437834.7,
        4476675.06
       ],
       [
        437828.66,
        4476694.18
       ],
       [
        437823.35,
        4476697.2
       ],
       [
        437811.28,
        4476675.66
       ],
       [
        437800.41,
        4476681.98
       ],
       [
        437799.78,
        4476682.62
       ],
       [
        437799.2,
        4476683.32
       ],
       [
        437798.46,
        4476684.46
       ],
       [
        437798.05,
        4476685.27
       ],
       [
        437797.71,
        4476686.11
       ],
       [
        437797.57,
        4476686.54
       ],
       [
        437797.35,
        4476687.42
       ],
       [
        437797.21,
        4476688.32
       ],
       [
        437797.15,
        4476689.22
       ],
       [
        437797.17,
        4476690.13
       ],
       [
        437797.21,
        4476690.58
       ],
       [
        437797.34,
        4476691.47
       ],
       [
        437797.44,
        4476691.92
       ],
       [
        437797.7,
        4476692.78
       ],
       [
        437798.03,
        4476693.63
       ],
       [
        437798.22,
        4476694.04
       ],
       [
        437805.64,
        4476707.22
       ]
      ],
      [
       [
        437834.38,
        4476641.11
       ],
       [
        437838.15,
        4476629.2
       ],
       [
        437855.43,
        4476634.48
       ],
       [
        437850.08,
        4476651.42
       ],
       [
        437832.82,
        4476646.04
       ],
       [
        437834.38,
        4476641.11
       ]
      ]
     ],
     [
      [
       [
        437875.24,
        4476501.72
       ],
       [
        437882.73,
        4476478.03
       ],
       [
        437854.89,
        4476469.2
       ],
       [
        437847.4,
        4476492.88
       ],
       [
        437839.65,
        4476517.36
       ],
       [
        437867.5,
        4476526.2
       ],
       [
        437875.24,
        4476501.72
       ]
      ]
     ],
     [
      [
       [
        437906.78,
        4476496.85
       ],
       [
        437915.51,
        4476499.51
       ],
       [
        437917.63,
        4476492.95
       ],
       [
        437908.9,
        4476490.14
       ],
       [
        437918.0,
        4476461.35
       ],
       [
        437892.59,
        4476453.31
       ],
       [
        437872.32,
        4476517.6
       ],
       [
        437897.67,
        4476525.65
       ],
       [
        437906.78,
        4476496.85
       ]
      ]
     ]
    ]
   }
  }
 ]
}