{
 "type": "FeatureCollection",
 "crs": {
  "type": "name",
  "properties": {
   "name": "urn:ogc:def:crs:EPSG::25830"
  }
 },
 "features": [
  {
   "type": "Feature",
   "properties": {
    "beginLifespanVersion": "2021-02-25T00:00:00",
    "conditionOfConstruction": "functional",
    "addresses": "http://ovc.catastro.meh.es/INSPIRE/wfsAD.aspx?service=wfs&version=2&request=GetFeature&STOREDQUERIE_ID=GetadByRefcat&refcat=7773607VK3777D&srsname=EPSG::25830",
    "cadastralParcels": "http://ovc.catastro.meh.es/INSPIRE/wfsCP.aspx?service=wfs&version=2&request=GetFeature&STOREDQUERIE_ID=GetParcel&refcat=7773607VK3777D&srsname=EPSG::25830",
    "currentUse": "4_3_publicServices",
    "numberOfBuildingUnits": "1",
    "numberOfDwellings": "0",
    "localId": "7773607VK3777D",
    "dateOfConstruction_beginning": "1989-01-01T00:00:00",
    "reference": "7773607VK3777D",
    "value": "16774"
   },
   "geometry": {
    "type": "Polygon",
    "coordinates": [
     [
      [
       437674.75,
       4477020.35
      ],
      [
       437676.36,
       4477020.43
      ],
      [
       437678.02,
       4477020.44
      ],
      [
       437679.69,
       4477020.38
      ],
      [
       437681.35,
       4477020.25
      ],
      [
       437683.0,
       4477020.04
      ],
      [
       437684.64,
       4477019.76
      ],
      [
       437686.27,
       4477019.41
      ],
      [
       437687.88,
       4477018.99
      ],
      [
       437688.82,
       4477018.7
      ],
      [
       437689.48,
       4477018.5
      ],
      [
       437691.04,
       4477017.95
      ],
      [
       437692.59,
       4477017.32
      ],
      [
       437694.1,
       4477016.63
      ],
      [
       437695.59,
       4477015.87
      ],
      [
       437697.03,
       4477015.05
      ],
      [
       437698.45,
       4477014.16
      ],
      [
       437699.82,
       4477013.22
      ],
      [
       437701.15,
       4477012.22
      ],
      [
       437702.43,
       4477011.16
      ],
      [
       437703.67,
       4477010.04
      ],
      [
       437704.85,
       4477008.87
      ],
      [
       437705.99,
       4477007.65
      ],
      [
       437707.07,
       4477006.39
      ],
      [
       437708.1,
       4477005.07
      ],
      [
       437709.06,
       4477003.72
      ],
      [
       437709.97,
       4477002.32
      ],
      [
       437710.81,
       4477000.89
      ],
      [
       437711.59,
       4476999.42
      ],
      [
       437712.31,
       4476997.91
      ],
      [
       437712.96,
       4476996.38
      ],
      [
       437713.55,
       4476994.82
      ],
      [
       437714.06,
       4476993.24
      ],
      [
       437714.51,
       4476991.63
      ],
      [
       437714.88,
       4476990.01
      ],
      [
       437715.19,
       4476988.37
      ],
      [
       437715.42,
       4476986.72
      ],
      [
       437715.58,
       4476985.06
      ],
      [
       437715.67,
       4476983.4
      ],
      [
       437715.68,
       4476981.74
      ],
      [
       437715.63,
       4476980.07
      ],
      [
       437715.5,
       4476978.41
      ],
      [
       437715.29,
       4476976.76
      ],
      [
       437715.02,
       4476975.12
      ],
      [
       437714.68,
       4476973.49
      ],
      [
       437714.26,
       4476971.87
      ],
      [
       437713.78,
       4476970.28
      ],
      [
       437713.22,
       4476968.71
      ],
      [
       437712.6,
       4476967.16
      ],
      [
       437711.91,
       4476965.65
      ],
      [
       437711.16,
       4476964.16
      ],
      [
       437710.34,
       4476962.71
      ],
      [
       437709.46,
       4476961.3
      ],
      [
       437708.52,
       4476959.92
      ],
      [
       437707.52,
       4476958.59
      ],
      [
       437706.46,
       4476957.31
      ],
      [
       437705.35,
       4476956.07
      ],
      [
       437704.19,
       4476954.88
      ],
      [
       437702.97,
       4476953.74
      ],
      [
       437701.71,
       4476952.65
      ],
      [
       437700.4,
       4476951.63
      ],
      [
       437699.04,
       4476950.66
      ],
      [
       437697.65,
       4476949.74
      ],
      [
       437696.21,
       4476948.9
      ],
      [
       437694.75,
       4476948.11
      ],
      [
       437693.24,
       4476947.39
      ],
      [
       437691.71,
       4476946.73
      ],
      [
       437690.16,
       4476946.15
      ],
      [
       437688.57,
       4476945.63
      ],
      [
       437686.97,
       4476945.18
      ],
      [
       437685.35,
       4476944.8
      ],
      [
       437681.96,
       4476947.02
      ],
      [
       437680.73,
       4476946.83
      ],
      [
       437679.49,
       4476946.71
      ],
      [
       437678.25,
       4476946.64
      ],
      [
       437677.01,
       4476946.62
      ],
      [
       437675.76,
       4476946.66
      ],
      [
       437674.53,
       4476946.75
      ],
      [
       437673.29,
       4476946.9
      ],
      [
       437672.07,
       4476947.1
      ],
      [
       437670.85,
       4476947.36
      ],
      [
       437669.65,
       4476947.67
      ],
      [
       437668.46,
       4476948.03
      ],
      [
       437667.29,
       4476948.45
      ],
      [
       437666.14,
       4476948.92
      ],
      [
       437662.13,
       4476947.18
      ],
      [
       437660.62,
       4476947.88
      ],
      [
       437659.14,
       4476948.65
      ],
      [
       437657.69,
       4476949.47
      ],
      [
       437656.29,
       4476950.37
      ],
      [
       437654.92,
       4476951.32
      ],
      [
       437653.6,
       4476952.33
      ],
      [
       437652.32,
       4476953.4
      ],
      [
       437651.09,
       4476954.52
      ],
      [
       437649.91,
       4476955.69
      ],
      [
       437648.78,
       4476956.92
      ],
      [
       437647.7,
       4476958.19
      ],
      [
       437646.68,
       4476959.51
      ],
      [
       437645.73,
       4476960.87
      ],
      [
       437644.83,
       4476962.27
      ],
      [
       437643.99,
       4476963.71
      ],
      [
       437643.21,
       4476965.18
      ],
      [
       437642.51,
       4476966.69
      ],
      [
       437641.86,
       4476968.23
      ],
      [
       437641.29,
       4476969.79
      ],
      [
       437640.78,
       4476971.38
      ],
      [
       437640.34,
       4476972.98
      ],
      [
       437639.98,
       4476974.61
      ],
      [
       437639.68,
       4476976.25
      ],
      [
       437639.46,
       4476977.9
      ],
      [
       437639.31,
       4476979.56
      ],
      [
       437639.23,
       4476981.22
      ],
      [
       437639.22,
       4476982.89
      ],
      [
       437639.29,
       4476984.55
      ],
      [
       437639.42,
       4476986.21
      ],
      [
       437639.63,
       4476987.86
      ],
      [
       437639.92,
       4476989.5
      ],
      [
       437640.27,
       4476991.13
      ],
      [
       437640.69,
       4476992.74
      ],
      [
       437641.19,
       4476994.33
      ],
      [
       437641.75,
       4476995.9
      ],
      [
       437642.38,
       4476997.44
      ],
      [
       437643.08,
       4476998.95
      ],
      [
       437643.84,
       4477000.43
      ],
      [
       437644.66,
       4477001.88
      ],
      [
       437645.55,
       4477003.29
      ],
      [
       437646.5,
       4477004.66
      ],
      [
       437647.51,
       4477005.99
      ],
      [
       437648.57,
       4477007.27
      ],
      [
       437649.69,
       4477008.5
      ],
      [
       437650.86,
       4477009.68
      ],
      [
       437652.08,
       4477010.82
      ],
      [
       437653.35,
       4477011.89
      ],
      [
       437654.67,
       4477012.92
      ],
      [
       437656.02,
       4477013.88
      ],
      [
       437657.42,
       4477014.78
      ],
      [
       437658.86,
       4477015.62
      ],
      [
       437660.33,
       4477016.4
      ],
      [
       437661.84,
       4477017.11
      ],
      [
       437663.37,
       4477017.76
      ],
      [
       437664.94,
       4477018.34
      ],
      [
       437666.52,
       4477018.85
      ],
      [
       437668.13,
       4477019.29
      ],
      [
       437669.75,
       4477019.66
      ],
      [
       437671.39,
       4477019.96
      ],
      [
       437673.04,
       4477020.19
      ],
      [
       437674.75,
       4477020.35
      ]
     ]
    ]
   }
  }
 ]
}