{
 "type": "FeatureCollection",
 "crs": {
  "type": "name",
  "properties": {
   "name": "urn:ogc:def:crs:EPSG::25830"
  }
 },
 "features": [
  {
   "type": "Feature",
   "properties": {
    "beginLifespanVersion": "2021-02-25T00:00:00",
    "addresses": "http://ovc.catastro.meh.es/INSPIRE/wfsAD.aspx?service=wfs&version=2&request=GetFeature&STOREDQUERIE_ID=GetadByRefcat&refcat=7773607VK3777D&srsname=EPSG::25830",
    "cadastralParcels": "http://ovc.catastro.meh.es/INSPIRE/wfsCP.aspx?service=wfs&version=2&request=GetFeature&STOREDQUERIE_ID=GetParcel&refcat=7773607VK3777D&srsname=EPSG::25830",
    "numberOfFloorsAboveGround": "4",
    "heightBelowGround": "0",
    "numberOfFloorsBelowGround": "0",
    "localId": "7773607VK3777D_part1",
    "area_m2": 3154.9,
    "dist_center_m": 19.5
   },
   "geometry": {
    "type": "Polygon",
    "coordinates": [
     [
      [
       437662.13,
       4476947.18
      ],
      [
       437660.62,
       4476947.88
      ],
      [
       437659.14,
       4476948.65
      ],
      [
       437657.69,
       4476949.47
      ],
      [
       437656.29,
       4476950.37
      ],
      [
       437654.92,
       4476951.32
      ],
      [
       437653.6,
       4476952.33
      ],
      [
       437652.32,
       4476953.4
      ],
      [
       437651.09,
       4476954.52
      ],
      [
       437649.91,
       4476955.69
      ],
      [
       437648.78,
       4476956.92
      ],
      [
       437647.7,
       4476958.19
      ],
      [
       437646.68,
       4476959.51
      ],
      [
       437645.73,
       4476960.87
      ],
      [
       437644.83,
       4476962.27
      ],
      [
       437643.99,
       4476963.71
      ],
      [
       437643.21,
       4476965.18
      ],
      [
       437642.51,
       4476966.69
      ],
      [
       437641.86,
       4476968.23
      ],
      [
       437641.29,
       4476969.79
      ],
      [
       437640.78,
       4476971.38
      ],
      [
       437640.34,
       4476972.98
      ],
      [
       437639.98,
       4476974.61
      ],
      [
       437639.68,
       4476976.25
      ],
      [
       437639.46,
       4476977.9
      ],
      [
       437639.31,
       4476979.56
      ],
      [
       437639.23,
       4476981.22
      ],
      [
       437639.22,
       4476982.89
      ],
      [
       437639.29,
       4476984.55
      ],
      [
       437639.42,
       4476986.21
      ],
      [
       437639.63,
       4476987.86
      ],
      [
       437639.92,
       4476989.5
      ],
      [
       437640.27,
       4476991.13
      ],
      [
       437640.69,
       4476992.74
      ],
      [
       437641.19,
       4476994.33
      ],
      [
       437641.75,
       4476995.9
      ],
      [
       437642.38,
       4476997.44
      ],
      [
       437643.08,
       4476998.95
      ],
      [
       437643.84,
       4477000.43
      ],
      [
       437644.66,
       4477001.88
      ],
      [
       437645.55,
       4477003.29
      ],
      [
       437646.5,
       4477004.66
      ],
      [
       437647.51,
       4477005.99
      ],
      [
       437648.57,
       4477007.27
      ],
      [
       437649.69,
       4477008.5
      ],
      [
       437650.86,
       4477009.68
      ],
      [
       437652.08,
       4477010.82
      ],
      [
       437653.35,
       4477011.89
      ],
      [
       437654.67,
       4477012.92
      ],
      [
       437656.02,
       4477013.88
      ],
      [
       437657.42,
       4477014.78
      ],
      [
       437658.86,
       4477015.62
      ],
      [
       437660.33,
       4477016.4
      ],
      [
       437661.84,
       4477017.11
      ],
      [
       437663.37,
       4477017.76
      ],
      [
       437664.94,
       4477018.34
      ],
      [
       437666.52,
       4477018.85
      ],
      [
       437668.13,
       4477019.29
      ],
      [
       437669.75,
       4477019.66
      ],
      [
       437671.39,
       4477019.96
      ],
      [
       437673.04,
       4477020.19
      ],
      [
       437674.75,
       4477020.35
      ],
      [
       437675.32,
       4477005.7
      ],
      [
       437675.71,
       4476995.72
      ],
      [
       437676.64,
       4476995.83
      ],
      [
       437678.05,
       4476995.87
      ],
      [
       437678.26,
       4476992.99
      ],
      [
       437678.39,
       4476992.73
      ],
      [
       437678.6,
       4476992.52
      ],
      [
       437678.87,
       4476992.41
      ],
      [
       437679.02,
       4476992.39
      ],
      [
       437679.17,
       4476992.4
      ],
      [
       437679.45,
       4476992.49
      ],
      [
       437679.68,
       4476992.68
      ],
      [
       437679.83,
       4476992.93
      ],
      [
       437680.22,
       4476995.65
      ],
      [
       437681.28,
       4476995.41
      ],
      [
       437682.4,
       4476995.06
      ],
      [
       437685.05,
       4477004.72
      ],
      [
       437688.82,
       4477018.7
      ],
      [
       437689.48,
       4477018.5
      ],
      [
       437691.04,
       4477017.95
      ],
      [
       437692.59,
       4477017.32
      ],
      [
       437694.1,
       4477016.63
      ],
      [
       437695.59,
       4477015.87
      ],
      [
       437697.03,
       4477015.05
      ],
      [
       437698.45,
       4477014.16
      ],
      [
       437699.82,
       4477013.22
      ],
      [
       437701.15,
       4477012.22
      ],
      [
       437702.43,
       4477011.16
      ],
      [
       437703.67,
       4477010.04
      ],
      [
       437704.85,
       4477008.87
      ],
      [
       437705.99,
       4477007.65
      ],
      [
       437707.07,
       4477006.39
      ],
      [
       437708.1,
       4477005.07
      ],
      [
       437709.06,
       4477003.72
      ],
      [
       437709.97,
       4477002.32
      ],
      [
       437710.81,
       4477000.89
      ],
      [
       437711.59,
       4476999.42
      ],
      [
       437712.31,
       4476997.91
      ],
      [
       437712.96,
       4476996.38
      ],
      [
       437713.55,
       4476994.82
      ],
      [
       437714.06,
       4476993.24
      ],
      [
       437714.51,
       4476991.63
      ],
      [
       437714.88,
       4476990.01
      ],
      [
       437715.19,
       4476988.37
      ],
      [
       437715.42,
       4476986.72
      ],
      [
       437715.58,
       4476985.06
      ],
      [
       437715.67,
       4476983.4
      ],
      [
       437715.68,
       4476981.74
      ],
      [
       437715.63,
       4476980.07
      ],
      [
       437715.5,
       4476978.41
      ],
      [
       437715.29,
       4476976.76
      ],
      [
       437715.02,
       4476975.12
      ],
      [
       437714.68,
       4476973.49
      ],
      [
       437714.26,
       4476971.87
      ],
      [
       437713.78,
       4476970.28
      ],
      [
       437713.22,
       4476968.71
      ],
      [
       437712.6,
       4476967.16
      ],
      [
       437711.91,
       4476965.65
      ],
      [
       437711.16,
       4476964.16
      ],
      [
       437710.34,
       4476962.71
      ],
      [
       437709.46,
       4476961.3
      ],
      [
       437708.52,
       4476959.92
      ],
      [
       437707.52,
       4476958.59
      ],
      [
       437706.46,
       4476957.31
      ],
      [
       437705.35,
       4476956.07
      ],
      [
       437704.19,
       4476954.88
      ],
      [
       437702.97,
       4476953.74
      ],
      [
       437701.71,
       4476952.65
      ],
      [
       437700.4,
       4476951.63
      ],
      [
       437699.04,
       4476950.66
      ],
      [
       437697.65,
       4476949.74
      ],
      [
       437696.21,
       4476948.9
      ],
      [
       437694.75,
       4476948.11
      ],
      [
       437693.24,
       4476947.39
      ],
      [
       437691.71,
       4476946.73
      ],
      [
       437690.16,
       4476946.15
      ],
      [
       437688.57,
       4476945.63
      ],
      [
       437686.97,
       4476945.18
      ],
      [
       437685.35,
       4476944.8
      ],
      [
       437684.75,
       4476949.75
      ],
      [
       437683.56,
       4476950.91
      ],
      [
       437682.76,
       4476950.85
      ],
      [
       437681.76,
       4476949.51
      ],
      [
       437681.48,
       4476953.07
      ],
      [
       437680.7,
       4476958.11
      ],
      [
       437679.09,
       4476968.57
      ],
      [
       437678.16,
       4476968.51
      ],
      [
       437677.22,
       4476968.51
      ],
      [
       437677.32,
       4476971.26
      ],
      [
       437677.25,
       4476971.48
      ],
      [
       437677.1,
       4476971.67
      ],
      [
       437676.9,
       4476971.79
      ],
      [
       437676.78,
       4476971.82
      ],
      [
       437676.54,
       4476971.82
      ],
      [
       437676.32,
       4476971.74
      ],
      [
       437676.22,
       4476971.67
      ],
      [
       437676.07,
       4476971.49
      ],
      [
       437676.02,
       4476971.38
      ],
      [
       437675.36,
       4476968.71
      ],
      [
       437674.45,
       4476968.9
      ],
      [
       437673.47,
       4476969.18
      ],
      [
       437669.74,
       4476959.29
      ],
      [
       437668.06,
       4476954.84
      ],
      [
       437666.74,
       4476951.35
      ],
      [
       437665.97,
       4476952.82
      ],
      [
       437665.19,
       4476953.02
      ],
      [
       437663.83,
       4476952.07
      ],
      [
       437662.13,
       4476947.18
      ]
     ],
     [
      [
       437643.02,
       4476974.77
      ],
      [
       437648.43,
       4476975.76
      ],
      [
       437648.07,
       4476977.58
      ],
      [
       437647.91,
       4476978.84
      ],
      [
       437647.79,
       4476980.14
      ],
      [
       437647.73,
       4476981.44
      ],
      [
       437647.72,
       4476982.73
      ],
      [
       437647.88,
       4476985.34
      ],
      [
       437648.04,
       4476986.6
      ],
      [
       437648.26,
       4476987.87
      ],
      [
       437648.54,
       4476989.17
      ],
      [
       437648.86,
       4476990.4
      ],
      [
       437649.25,
       4476991.63
      ],
      [
       437649.68,
       4476992.85
      ],
      [
       437650.17,
       4476994.04
      ],
      [
       437650.53,
       4476994.82
      ],
      [
       437645.55,
       4476997.15
      ],
      [
       437645.13,
       4476996.24
      ],
      [
       437644.55,
       4476994.83
      ],
      [
       437644.03,
       4476993.38
      ],
      [
       437643.57,
       4476991.91
      ],
      [
       437643.19,
       4476990.44
      ],
      [
       437642.86,
       4476988.92
      ],
      [
       437642.6,
       4476987.41
      ],
      [
       437642.41,
       4476985.9
      ],
      [
       437642.29,
       4476984.37
      ],
      [
       437642.22,
       4476982.84
      ],
      [
       437642.23,
       4476981.3
      ],
      [
       437642.3,
       4476979.77
      ],
      [
       437642.44,
       4476978.23
      ],
      [
       437642.64,
       4476976.72
      ],
      [
       437643.02,
       4476974.77
      ]
     ],
     [
      [
       437666.48,
       4476974.41
      ],
      [
       437665.97,
       4476975.2
      ],
      [
       437665.32,
       4476976.44
      ],
      [
       437664.8,
       4476977.75
      ],
      [
       437664.51,
       4476978.68
      ],
      [
       437654.53,
       4476976.87
      ],
      [
       437654.97,
       4476975.17
      ],
      [
       437655.16,
       4476974.58
      ],
      [
       437655.57,
       4476973.42
      ],
      [
       437656.04,
       4476972.27
      ],
      [
       437656.86,
       4476970.61
      ],
      [
       437657.9,
       4476968.88
      ],
      [
       437666.48,
       4476974.41
      ]
     ],
     [
      [
       437665.3,
       4476987.89
      ],
      [
       437665.95,
       4476989.13
      ],
      [
       437666.72,
       4476990.3
      ],
      [
       437667.61,
       4476991.39
      ],
      [
       437668.56,
       4476992.34
      ],
      [
       437661.9,
       4476999.73
      ],
      [
       437660.75,
       4476998.63
      ],
      [
       437660.32,
       4476998.18
      ],
      [
       437659.51,
       4476997.25
      ],
      [
       437658.74,
       4476996.28
      ],
      [
       437658.03,
       4476995.27
      ],
      [
       437657.37,
       4476994.23
      ],
      [
       437656.76,
       4476993.15
      ],
      [
       437656.25,
       4476992.14
      ],
      [
       437665.3,
       4476987.89
      ]
     ],
     [
      [
       437659.33,
       4476988.16
      ],
      [
       437659.06,
       4476987.46
      ],
      [
       437659.1,
       4476986.47
      ],
      [
       437659.09,
       4476985.48
      ],
      [
       437659.03,
       4476984.49
      ],
      [
       437658.93,
       4476983.51
      ],
      [
       437658.79,
       4476982.53
      ],
      [
       437658.59,
       4476981.56
      ],
      [
       437658.35,
       4476980.6
      ],
      [
       437658.52,
       4476979.87
      ],
      [
       437661.48,
       4476980.35
      ],
      [
       437661.43,
       4476979.85
      ],
      [
       437664.65,
       4476980.3
      ],
      [
       437665.16,
       4476986.28
      ],
      [
       437662.16,
       4476987.53
      ],
      [
       437662.11,
       4476987.03
      ],
      [
       437659.33,
       4476988.16
      ]
     ],
     [
      [
       437677.69,
       4476991.33
      ],
      [
       437676.89,
       4476991.29
      ],
      [
       437676.09,
       4476991.19
      ],
      [
       437675.3,
       4476991.01
      ],
      [
       437674.53,
       4476990.77
      ],
      [
       437673.79,
       4476990.46
      ],
      [
       437673.08,
       4476990.09
      ],
      [
       437672.4,
       4476989.66
      ],
      [
       437671.76,
       4476989.17
      ],
      [
       437671.17,
       4476988.62
      ],
      [
       437670.62,
       4476988.03
      ],
      [
       437670.13,
       4476987.39
      ],
      [
       437669.7,
       4476986.71
      ],
      [
       437669.33,
       4476986.0
      ],
      [
       437669.02,
       4476985.26
      ],
      [
       437668.78,
       4476984.49
      ],
      [
       437668.6,
       4476983.7
      ],
      [
       437668.5,
       4476982.9
      ],
      [
       437668.46,
       4476982.1
      ],
      [
       437668.5,
       4476981.3
      ],
      [
       437668.6,
       4476980.5
      ],
      [
       437668.78,
       4476979.71
      ],
      [
       437669.02,
       4476978.94
      ],
      [
       437669.33,
       4476978.2
      ],
      [
       437669.7,
       4476977.49
      ],
      [
       437670.13,
       4476976.81
      ],
      [
       437670.62,
       4476976.17
      ],
      [
       437671.17,
       4476975.58
      ],
      [
       437671.76,
       4476975.03
      ],
      [
       437672.4,
       4476974.54
      ],
      [
       437673.08,
       4476974.11
      ],
      [
       437673.79,
       4476973.74
      ],
      [
       437674.53,
       4476973.43
      ],
      [
       437675.3,
       4476973.19
      ],
      [
       437676.09,
       4476973.01
      ],
      [
       437676.89,
       4476972.91
      ],
      [
       437677.69,
       4476972.87
      ],
      [
       437678.49,
       4476972.91
      ],
      [
       437679.29,
       4476973.01
      ],
      [
       437680.08,
       4476973.19
      ],
      [
       437680.85,
       4476973.43
      ],
      [
       437681.59,
       4476973.74
      ],
      [
       437682.3,
       4476974.11
      ],
      [
       437682.98,
       4476974.54
      ],
      [
       437683.62,
       4476975.03
      ],
      [
       437684.21,
       4476975.58
      ],
      [
       437684.76,
       4476976.17
      ],
      [
       437685.25,
       4476976.81
      ],
      [
       437685.68,
       4476977.49
      ],
      [
       437686.05,
       4476978.2
      ],
      [
       437686.36,
       4476978.94
      ],
      [
       437686.6,
       4476979.71
      ],
      [
       437686.78,
       4476980.5
      ],
      [
       437686.88,
       4476981.3
      ],
      [
       437686.92,
       4476982.1
      ],
      [
       437686.88,
       4476982.9
      ],
      [
       437686.78,
       4476983.7
      ],
      [
       437686.6,
       4476984.49
      ],
      [
       437686.36,
       4476985.26
      ],
      [
       437686.05,
       4476986.0
      ],
      [
       437685.68,
       4476986.71
      ],
      [
       437685.25,
       4476987.39
      ],
      [
       437684.76,
       4476988.03
      ],
      [
       437684.21,
       4476988.62
      ],
      [
       437683.62,
       4476989.17
      ],
      [
       437682.98,
       4476989.66
      ],
      [
       437682.3,
       4476990.09
      ],
      [
       437681.59,
       4476990.46
      ],
      [
       437680.85,
       4476990.77
      ],
      [
       437680.08,
       4476991.01
      ],
      [
       437679.29,
       4476991.19
      ],
      [
       437678.49,
       4476991.29
      ],
      [
       437677.69,
       4476991.33
      ]
     ],
     [
      [
       437686.89,
       4476972.0
      ],
      [
       437694.3,
       4476964.71
      ],
      [
       437695.48,
       4476965.92
      ],
      [
       437695.89,
       4476966.38
      ],
      [
       437696.67,
       4476967.34
      ],
      [
       437697.4,
       4476968.33
      ],
      [
       437698.4,
       4476969.89
      ],
      [
       437699.0,
       4476970.97
      ],
      [
       437699.45,
       4476971.89
      ],
      [
       437690.11,
       4476976.31
      ],
      [
       437689.67,
       4476975.48
      ],
      [
       437688.93,
       4476974.29
      ],
      [
       437688.06,
       4476973.19
      ],
      [
       437687.42,
       4476972.51
      ],
      [
       437686.89,
       4476972.0
      ]
     ],
     [
      [
       437691.17,
       4476984.85
      ],
      [
       437701.11,
       4476987.24
      ],
      [
       437700.82,
       4476988.38
      ],
      [
       437700.46,
       4476989.56
      ],
      [
       437700.03,
       4476990.72
      ],
      [
       437699.55,
       4476991.86
      ],
      [
       437699.01,
       4476992.97
      ],
      [
       437698.41,
       4476994.05
      ],
      [
       437697.76,
       4476995.1
      ],
      [
       437697.29,
       4476995.78
      ],
      [
       437688.95,
       4476990.05
      ],
      [
       437689.7,
       4476988.86
      ],
      [
       437690.32,
       4476987.6
      ],
      [
       437690.66,
       4476986.73
      ],
      [
       437690.94,
       4476985.83
      ],
      [
       437691.17,
       4476984.85
      ]
     ],
     [
      [
       437709.32,
       4476967.21
      ],
      [
       437709.84,
       4476968.34
      ],
      [
       437710.41,
       4476969.77
      ],
      [
       437710.93,
       4476971.22
      ],
      [
       437711.37,
       4476972.68
      ],
      [
       437711.76,
       4476974.17
      ],
      [
       437712.07,
       4476975.67
      ],
      [
       437712.32,
       4476977.19
      ],
      [
       437712.51,
       4476978.72
      ],
      [
       437712.63,
       4476980.23
      ],
      [
       437712.68,
       4476981.78
      ],
      [
       437712.67,
       4476983.31
      ],
      [
       437712.59,
       4476984.83
      ],
      [
       437712.44,
       4476986.37
      ],
      [
       437712.23,
       4476987.88
      ],
      [
       437711.85,
       4476989.82
      ],
      [
       437706.5,
       4476988.53
      ],
      [
       437706.8,
       4476986.99
      ],
      [
       437706.98,
       4476985.72
      ],
      [
       437707.1,
       4476984.42
      ],
      [
       437707.17,
       4476983.15
      ],
      [
       437707.18,
       4476981.85
      ],
      [
       437707.14,
       4476980.54
      ],
      [
       437707.04,
       4476979.28
      ],
      [
       437706.88,
       4476977.98
      ],
      [
       437706.66,
       4476976.67
      ],
      [
       437706.4,
       4476975.42
      ],
      [
       437706.07,
       4476974.17
      ],
      [
       437705.7,
       4476972.94
      ],
      [
       437705.27,
       4476971.72
      ],
      [
       437704.78,
       4476970.51
      ],
      [
       437704.35,
       4476969.57
      ],
      [
       437709.32,
       4476967.21
      ]
     ]
    ]
   }
  },
  {
   "type": "Feature",
   "properties": {
    "beginLifespanVersion": "2021-02-25T00:00:00",
    "addresses": "http://ovc.catastro.meh.es/INSPIRE/wfsAD.aspx?service=wfs&version=2&request=GetFeature&STOREDQUERIE_ID=GetadByRefcat&refcat=7773607VK3777D&srsname=EPSG::25830",
    "cadastralParcels": "http://ovc.catastro.meh.es/INSPIRE/wfsCP.aspx?service=wfs&version=2&request=GetFeature&STOREDQUERIE_ID=GetParcel&refcat=7773607VK3777D&srsname=EPSG::25830",
    "numberOfFloorsAboveGround": "5",
    "heightBelowGround": "0",
    "numberOfFloorsBelowGround": "0",
    "localId": "7773607VK3777D_part2",
    "area_m2": 116.77,
    "dist_center_m": 32.5
   },
   "geometry": {
    "type": "Polygon",
    "coordinates": [
     [
      [
       437643.02,
       4476974.77
      ],
      [
       437642.64,
       4476976.72
      ],
      [
       437642.44,
       4476978.23
      ],
      [
       437642.3,
       4476979.77
      ],
      [
       437642.23,
       4476981.3
      ],
      [
       437642.22,
       4476982.84
      ],
      [
       437642.29,
       4476984.37
      ],
      [
       437642.41,
       4476985.9
      ],
      [
       437642.6,
       4476987.41
      ],
      [
       437642.86,
       4476988.92
      ],
      [
       437643.19,
       4476990.44
      ],
      [
       437643.57,
       4476991.91
      ],
      [
       437644.03,
       4476993.38
      ],
      [
       437644.55,
       4476994.83
      ],
      [
       437645.13,
       4476996.24
      ],
      [
       437645.55,
       4476997.15
      ],
      [
       437650.53,
       4476994.82
      ],
      [
       437650.17,
       4476994.04
      ],
      [
       437649.68,
       4476992.85
      ],
      [
       437649.25,
       4476991.63
      ],
      [
       437648.86,
       4476990.4
      ],
      [
       437648.54,
       4476989.17
      ],
      [
       437648.26,
       4476987.87
      ],
      [
       437648.04,
       4476986.6
      ],
      [
       437647.88,
       4476985.34
      ],
      [
       437647.72,
       4476982.73
      ],
      [
       437647.73,
       4476981.44
      ],
      [
       437647.79,
       4476980.14
      ],
      [
       437647.91,
       4476978.84
      ],
      [
       437648.07,
       4476977.58
      ],
      [
       437648.43,
       4476975.76
      ],
      [
       437643.02,
       4476974.77
      ]
     ]
    ]
   }
  },
  {
   "type": "Feature",
   "properties": {
    "beginLifespanVersion": "2021-02-25T00:00:00",
    "addresses": "http://ovc.catastro.meh.es/INSPIRE/wfsAD.aspx?service=wfs&version=2&request=GetFeature&STOREDQUERIE_ID=GetadByRefcat&refcat=7773607VK3777D&srsname=EPSG::25830",
    "cadastralParcels": "http://ovc.catastro.meh.es/INSPIRE/wfsCP.aspx?service=wfs&version=2&request=GetFeature&STOREDQUERIE_ID=GetParcel&refcat=7773607VK3777D&srsname=EPSG::25830",
    "numberOfFloorsAboveGround": "1",
    "heightBelowGround": "0",
    "numberOfFloorsBelowGround": "0",
    "localId": "7773607VK3777D_part3",
    "area_m2": 68.32,
    "dist_center_m": 19.1
   },
   "geometry": {
    "type": "Polygon",
    "coordinates": [
     [
      [
       437666.48,
       4476974.41
      ],
      [
       437657.9,
       4476968.88
      ],
      [
       437656.86,
       4476970.61
      ],
      [
       437656.04,
       4476972.27
      ],
      [
       437655.57,
       4476973.42
      ],
      [
       437655.16,
       4476974.58
      ],
      [
       437654.97,
       4476975.17
      ],
      [
       437654.53,
       4476976.87
      ],
      [
       437664.51,
       4476978.68
      ],
      [
       437664.8,
       4476977.75
      ],
      [
       437665.32,
       4476976.44
      ],
      [
       437665.97,
       4476975.2
      ],
      [
       437666.48,
       4476974.41
      ]
     ]
    ]
   }
  },
  {
   "type": "Feature",
   "properties": {
    "beginLifespanVersion": "2021-02-25T00:00:00",
    "addresses": "http://ovc.catastro.meh.es/INSPIRE/wfsAD.aspx?service=wfs&version=2&request=GetFeature&STOREDQUERIE_ID=GetadByRefcat&refcat=7773607VK3777D&srsname=EPSG::25830",
    "cadastralParcels": "http://ovc.catastro.meh.es/INSPIRE/wfsCP.aspx?service=wfs&version=2&request=GetFeature&STOREDQUERIE_ID=GetParcel&refcat=7773607VK3777D&srsname=EPSG::25830",
    "numberOfFloorsAboveGround": "1",
    "heightBelowGround": "0",
    "numberOfFloorsBelowGround": "0",
    "localId": "7773607VK3777D_part4",
    "area_m2": 75.19,
    "dist_center_m": 18.8
   },
   "geometry": {
    "type": "Polygon",
    "coordinates": [
     [
      [
       437665.3,
       4476987.89
      ],
      [
       437656.25,
       4476992.14
      ],
      [
       437656.76,
       4476993.15
      ],
      [
       437657.37,
       4476994.23
      ],
      [
       437658.03,
       4476995.27
      ],
      [
       437658.74,
       4476996.28
      ],
      [
       437659.51,
       4476997.25
      ],
      [
       437660.32,
       4476998.18
      ],
      [
       437660.75,
       4476998.63
      ],
      [
       437661.9,
       4476999.73
      ],
      [
       437668.56,
       4476992.34
      ],
      [
       437667.61,
       4476991.39
      ],
      [
       437666.72,
       4476990.3
      ],
      [
       437665.95,
       4476989.13
      ],
      [
       437665.3,
       4476987.89
      ]
     ]
    ]
   }
  },
  {
   "type": "Feature",
   "properties": {
    "beginLifespanVersion": "2021-02-25T00:00:00",
    "addresses": "http://ovc.catastro.meh.es/INSPIRE/wfsAD.aspx?service=wfs&version=2&request=GetFeature&STOREDQUERIE_ID=GetadByRefcat&refcat=7773607VK3777D&srsname=EPSG::25830",
    "cadastralParcels": "http://ovc.catastro.meh.es/INSPIRE/wfsCP.aspx?service=wfs&version=2&request=GetFeature&STOREDQUERIE_ID=GetParcel&refcat=7773607VK3777D&srsname=EPSG::25830",
    "numberOfFloorsAboveGround": "4",
    "heightBelowGround": "3",
    "numberOfFloorsBelowGround": "1",
    "localId": "7773607VK3777D_part5",
    "area_m2": 43.59,
    "dist_center_m": 15.6
   },
   "geometry": {
    "type": "Polygon",
    "coordinates": [
     [
      [
       437659.33,
       4476988.16
      ],
      [
       437662.11,
       4476987.03
      ],
      [
       437662.16,
       4476987.53
      ],
      [
       437665.16,
       4476986.28
      ],
      [
       437664.65,
       4476980.3
      ],
      [
       437661.43,
       4476979.85
      ],
      [
       437661.48,
       4476980.35
      ],
      [
       437658.52,
       4476979.87
      ],
      [
       437658.35,
       4476980.6
      ],
      [
       437658.59,
       4476981.56
      ],
      [
       437658.79,
       4476982.53
      ],
      [
       437658.93,
       4476983.51
      ],
      [
       437659.03,
       4476984.49
      ],
      [
       437659.09,
       4476985.48
      ],
      [
       437659.1,
       4476986.47
      ],
      [
       437659.06,
       4476987.46
      ],
      [
       437659.33,
       4476988.16
      ]
     ]
    ]
   }
  },
  {
   "type": "Feature",
   "properties": {
    "beginLifespanVersion": "2021-02-25T00:00:00",
    "addresses": "http://ovc.catastro.meh.es/INSPIRE/wfsAD.aspx?service=wfs&version=2&request=GetFeature&STOREDQUERIE_ID=GetadByRefcat&refcat=7773607VK3777D&srsname=EPSG::25830",
    "cadastralParcels": "http://ovc.catastro.meh.es/INSPIRE/wfsCP.aspx?service=wfs&version=2&request=GetFeature&STOREDQUERIE_ID=GetParcel&refcat=7773607VK3777D&srsname=EPSG::25830",
    "numberOfFloorsAboveGround": "3",
    "heightBelowGround": "0",
    "numberOfFloorsBelowGround": "0",
    "localId": "7773607VK3777D_part6",
    "area_m2": 14.45,
    "dist_center_m": 34.9
   },
   "geometry": {
    "type": "Polygon",
    "coordinates": [
     [
      [
       437662.13,
       4476947.18
      ],
      [
       437663.83,
       4476952.07
      ],
      [
       437665.19,
       4476953.02
      ],
      [
       437665.97,
       4476952.82
      ],
      [
       437666.74,
       4476951.35
      ],
      [
       437666.14,
       4476948.92
      ],
      [
       437662.13,
       4476947.18
      ]
     ]
    ]
   }
  },
  {
   "type": "Feature",
   "properties": {
    "beginLifespanVersion": "2021-02-25T00:00:00",
    "addresses": "http://ovc.catastro.meh.es/INSPIRE/wfsAD.aspx?service=wfs&version=2&request=GetFeature&STOREDQUERIE_ID=GetadByRefcat&refcat=7773607VK3777D&srsname=EPSG::25830",
    "cadastralParcels": "http://ovc.catastro.meh.es/INSPIRE/wfsCP.aspx?service=wfs&version=2&request=GetFeature&STOREDQUERIE_ID=GetParcel&refcat=7773607VK3777D&srsname=EPSG::25830",
    "numberOfFloorsAboveGround": "0",
    "heightBelowGround": "3",
    "numberOfFloorsBelowGround": "1",
    "localId": "7773607VK3777D_part7",
    "area_m2": 31.64,
    "dist_center_m": 36.7
   },
   "geometry": {
    "type": "Polygon",
    "coordinates": [
     [
      [
       437681.96,
       4476947.02
      ],
      [
       437682.0,
       4476944.73
      ],
      [
       437678.66,
       4476944.8
      ],
      [
       437675.32,
       4476945.0
      ],
      [
       437671.99,
       4476945.34
      ],
      [
       437668.68,
       4476945.82
      ],
      [
       437665.39,
       4476946.43
      ],
      [
       437666.14,
       4476948.92
      ],
      [
       437667.29,
       4476948.45
      ],
      [
       437668.46,
       4476948.03
      ],
      [
       437669.65,
       4476947.67
      ],
      [
       437670.85,
       4476947.36
      ],
      [
       437672.07,
       4476947.1
      ],
      [
       437673.29,
       4476946.9
      ],
      [
       437674.53,
       4476946.75
      ],
      [
       437675.76,
       4476946.66
      ],
      [
       437677.01,
       4476946.62
      ],
      [
       437678.25,
       4476946.64
      ],
      [
       437679.49,
       4476946.71
      ],
      [
       437680.73,
       4476946.83
      ],
      [
       437681.96,
       4476947.02
      ]
     ]
    ]
   }
  },
  {
   "type": "Feature",
   "properties": {
    "beginLifespanVersion": "2021-02-25T00:00:00",
    "addresses": "http://ovc.catastro.meh.es/INSPIRE/wfsAD.aspx?service=wfs&version=2&request=GetFeature&STOREDQUERIE_ID=GetadByRefcat&refcat=7773607VK3777D&srsname=EPSG::25830",
    "cadastralParcels": "http://ovc.catastro.meh.es/INSPIRE/wfsCP.aspx?service=wfs&version=2&request=GetFeature&STOREDQUERIE_ID=GetParcel&refcat=7773607VK3777D&srsname=EPSG::25830",
    "numberOfFloorsAboveGround": "1",
    "heightBelowGround": "3",
    "numberOfFloorsBelowGround": "1",
    "localId": "7773607VK3777D_part8",
    "area_m2": 96.74,
    "dist_center_m": 32.4
   },
   "geometry": {
    "type": "Polygon",
    "coordinates": [
     [
      [
       437681.96,
       4476947.02
      ],
      [
       437680.73,
       4476946.83
      ],
      [
       437679.49,
       4476946.71
      ],
      [
       437678.25,
       4476946.64
      ],
      [
       437677.01,
       4476946.62
      ],
      [
       437675.76,
       4476946.66
      ],
      [
       437674.53,
       4476946.75
      ],
      [
       437673.29,
       4476946.9
      ],
      [
       437672.07,
       4476947.1
      ],
      [
       437670.85,
       4476947.36
      ],
      [
       437669.65,
       4476947.67
      ],
      [
       437668.46,
       4476948.03
      ],
      [
       437667.29,
       4476948.45
      ],
      [
       437666.14,
       4476948.92
      ],
      [
       437666.74,
       4476951.35
      ],
      [
       437668.06,
       4476954.84
      ],
      [
       437670.15,
       4476954.26
      ],
      [
       437671.74,
       4476953.9
      ],
      [
       437673.35,
       4476953.61
      ],
      [
       437674.96,
       4476953.37
      ],
      [
       437676.59,
       4476953.2
      ],
      [
       437678.22,
       4476953.09
      ],
      [
       437679.85,
       4476953.05
      ],
      [
       437681.48,
       4476953.07
      ],
      [
       437681.76,
       4476949.51
      ],
      [
       437681.96,
       4476947.02
      ]
     ]
    ]
   }
  },
  {
   "type": "Feature",
   "properties": {
    "beginLifespanVersion": "2021-02-25T00:00:00",
    "addresses": "http://ovc.catastro.meh.es/INSPIRE/wfsAD.aspx?service=wfs&version=2&request=GetFeature&STOREDQUERIE_ID=GetadByRefcat&refcat=7773607VK3777D&srsname=EPSG::25830",
    "cadastralParcels": "http://ovc.catastro.meh.es/INSPIRE/wfsCP.aspx?service=wfs&version=2&request=GetFeature&STOREDQUERIE_ID=GetParcel&refcat=7773607VK3777D&srsname=EPSG::25830",
    "numberOfFloorsAboveGround": "3",
    "heightBelowGround": "3",
    "numberOfFloorsBelowGround": "1",
    "localId": "7773607VK3777D_part9",
    "area_m2": 58.65,
    "dist_center_m": 26.4
   },
   "geometry": {
    "type": "Polygon",
    "coordinates": [
     [
      [
       437681.48,
       4476953.07
      ],
      [
       437679.85,
       4476953.05
      ],
      [
       437678.22,
       4476953.09
      ],
      [
       437676.59,
       4476953.2
      ],
      [
       437674.96,
       4476953.37
      ],
      [
       437673.35,
       4476953.61
      ],
      [
       437671.74,
       4476953.9
      ],
      [
       437670.15,
       4476954.26
      ],
      [
       437668.06,
       4476954.84
      ],
      [
       437669.74,
       4476959.29
      ],
      [
       437671.71,
       4476958.67
      ],
      [
       437673.45,
       4476958.28
      ],
      [
       437674.63,
       4476958.09
      ],
      [
       437675.82,
       4476957.97
      ],
      [
       437677.6,
       4476957.91
      ],
      [
       437678.79,
       4476957.95
      ],
      [
       437680.7,
       4476958.11
      ],
      [
       437681.48,
       4476953.07
      ]
     ]
    ]
   }
  },
  {
   "type": "Feature",
   "properties": {
    "beginLifespanVersion": "2021-02-25T00:00:00",
    "addresses": "http://ovc.catastro.meh.es/INSPIRE/wfsAD.aspx?service=wfs&version=2&request=GetFeature&STOREDQUERIE_ID=GetadByRefcat&refcat=7773607VK3777D&srsname=EPSG::25830",
    "cadastralParcels": "http://ovc.catastro.meh.es/INSPIRE/wfsCP.aspx?service=wfs&version=2&request=GetFeature&STOREDQUERIE_ID=GetParcel&refcat=7773607VK3777D&srsname=EPSG::25830",
    "numberOfFloorsAboveGround": "0",
    "heightBelowGround": "3",
    "numberOfFloorsBelowGround": "1",
    "localId": "7773607VK3777D_part10",
    "area_m2": 74.55,
    "dist_center_m": 40.3
   },
   "geometry": {
    "type": "Polygon",
    "coordinates": [
     [
      [
       437674.75,
       4477020.35
      ],
      [
       437674.61,
       4477024.12
      ],
      [
       437674.7,
       4477024.78
      ],
      [
       437674.77,
       4477024.99
      ],
      [
       437674.96,
       4477025.38
      ],
      [
       437675.22,
       4477025.74
      ],
      [
       437675.54,
       4477026.05
      ],
      [
       437675.9,
       4477026.3
      ],
      [
       437676.52,
       4477026.54
      ],
      [
       437676.95,
       4477026.6
      ],
      [
       437677.4,
       4477026.59
      ],
      [
       437677.83,
       4477026.5
      ],
      [
       437678.24,
       4477026.34
      ],
      [
       437678.61,
       4477026.1
      ],
      [
       437678.94,
       4477025.81
      ],
      [
       437679.21,
       4477025.46
      ],
      [
       437679.41,
       4477025.07
      ],
      [
       437679.55,
       4477024.65
      ],
      [
       437679.6,
       4477024.21
      ],
      [
       437681.25,
       4477024.1
      ],
      [
       437683.07,
       4477023.9
      ],
      [
       437684.97,
       4477023.6
      ],
      [
       437685.04,
       4477023.81
      ],
      [
       437685.25,
       4477024.2
      ],
      [
       437685.52,
       4477024.54
      ],
      [
       437685.85,
       4477024.84
      ],
      [
       437686.42,
       4477025.16
      ],
      [
       437686.85,
       4477025.29
      ],
      [
       437687.06,
       4477025.32
      ],
      [
       437687.28,
       4477025.34
      ],
      [
       437687.72,
       4477025.31
      ],
      [
       437688.15,
       4477025.21
      ],
      [
       437688.74,
       4477024.92
      ],
      [
       437688.92,
       4477024.79
      ],
      [
       437689.24,
       4477024.48
      ],
      [
       437689.6,
       4477023.94
      ],
      [
       437689.76,
       4477023.52
      ],
      [
       437689.86,
       4477022.87
      ],
      [
       437689.83,
       4477022.43
      ],
      [
       437688.82,
       4477018.7
      ],
      [
       437687.88,
       4477018.99
      ],
      [
       437686.27,
       4477019.41
      ],
      [
       437684.64,
       4477019.76
      ],
      [
       437683.0,
       4477020.04
      ],
      [
       437681.35,
       4477020.25
      ],
      [
       437679.69,
       4477020.38
      ],
      [
       437678.02,
       4477020.44
      ],
      [
       437676.36,
       4477020.43
      ],
      [
       437674.75,
       4477020.35
      ]
     ]
    ]
   }
  },
  {
   "type": "Feature",
   "properties": {
    "beginLifespanVersion": "2021-02-25T00:00:00",
    "addresses": "http://ovc.catastro.meh.es/INSPIRE/wfsAD.aspx?service=wfs&version=2&request=GetFeature&STOREDQUERIE_ID=GetadByRefcat&refcat=7773607VK3777D&srsname=EPSG::25830",
    "cadastralParcels": "http://ovc.catastro.meh.es/INSPIRE/wfsCP.aspx?service=wfs&version=2&request=GetFeature&STOREDQUERIE_ID=GetParcel&refcat=7773607VK3777D&srsname=EPSG::25830",
    "numberOfFloorsAboveGround": "2",
    "heightBelowGround": "0",
    "numberOfFloorsBelowGround": "0",
    "localId": "7773607VK3777D_part11",
    "area_m2": 211.0,
    "dist_center_m": 2.9
   },
   "geometry": {
    "type": "Polygon",
    "coordinates": [
     [
      [
       437677.69,
       4476991.33
      ],
      [
       437678.49,
       4476991.29
      ],
      [
       437679.29,
       4476991.19
      ],
      [
       437680.08,
       4476991.01
      ],
      [
       437680.85,
       4476990.77
      ],
      [
       437681.59,
       4476990.46
      ],
      [
       437682.3,
       4476990.09
      ],
      [
       437682.98,
       4476989.66
      ],
      [
       437683.62,
       4476989.17
      ],
      [
       437684.21,
       4476988.62
      ],
      [
       437684.76,
       4476988.03
      ],
      [
       437685.25,
       4476987.39
      ],
      [
       437685.68,
       4476986.71
      ],
      [
       437686.05,
       4476986.0
      ],
      [
       437686.36,
       4476985.26
      ],
      [
       437686.6,
       4476984.49
      ],
      [
       437686.78,
       4476983.7
      ],
      [
       437686.88,
       4476982.9
      ],
      [
       437686.92,
       4476982.1
      ],
      [
       437686.88,
       4476981.3
      ],
      [
       437686.78,
       4476980.5
      ],
      [
       437686.6,
       4476979.71
      ],
      [
       437686.36,
       4476978.94
      ],
      [
       437686.05,
       4476978.2
      ],
      [
       437685.68,
       4476977.49
      ],
      [
       437685.25,
       4476976.81
      ],
      [
       437684.76,
       4476976.17
      ],
      [
       437684.21,
       4476975.58
      ],
      [
       437683.62,
       4476975.03
      ],
      [
       437682.98,
       4476974.54
      ],
      [
       437682.3,
       4476974.11
      ],
      [
       437681.59,
       4476973.74
      ],
      [
       437680.85,
       4476973.43
      ],
      [
       437680.08,
       4476973.19
      ],
      [
       437679.29,
       4476973.01
      ],
      [
       437678.49,
       4476972.91
      ],
      [
       437677.69,
       4476972.87
      ],
      [
       437676.89,
       4476972.91
      ],
      [
       437676.09,
       4476973.01
      ],
      [
       437675.3,
       4476973.19
      ],
      [
       437674.53,
       4476973.43
      ],
      [
       437673.79,
       4476973.74
      ],
      [
       437673.08,
       4476974.11
      ],
      [
       437672.4,
       4476974.54
      ],
      [
       437671.76,
       4476975.03
      ],
      [
       437671.17,
       4476975.58
      ],
      [
       437670.62,
       4476976.17
      ],
      [
       437670.13,
       4476976.81
      ],
      [
       437669.7,
       4476977.49
      ],
      [
       437669.33,
       4476978.2
      ],
      [
       437669.02,
       4476978.94
      ],
      [
       437668.78,
       4476979.71
      ],
      [
       437668.6,
       4476980.5
      ],
      [
       437668.5,
       4476981.3
      ],
      [
       437668.46,
       4476982.1
      ],
      [
       437668.5,
       4476982.9
      ],
      [
       437668.6,
       4476983.7
      ],
      [
       437668.78,
       4476984.49
      ],
      [
       437669.02,
       4476985.26
      ],
      [
       437669.33,
       4476986.0
      ],
      [
       437669.7,
       4476986.71
      ],
      [
       437670.13,
       4476987.39
      ],
      [
       437670.62,
       4476988.03
      ],
      [
       437671.17,
       4476988.62
      ],
      [
       437671.76,
       4476989.17
      ],
      [
       437672.4,
       4476989.66
      ],
      [
       437673.08,
       4476990.09
      ],
      [
       437673.79,
       4476990.46
      ],
      [
       437674.53,
       4476990.77
      ],
      [
       437675.3,
       4476991.01
      ],
      [
       437676.09,
       4476991.19
      ],
      [
       437676.89,
       4476991.29
      ],
      [
       437677.69,
       4476991.33
      ]
     ],
     [
      [
       437673.66,
       4476986.83
      ],
      [
       437673.26,
       4476986.46
      ],
      [
       437672.89,
       4476986.06
      ],
      [
       437672.56,
       4476985.62
      ],
      [
       437672.27,
       4476985.16
      ],
      [
       437672.02,
       4476984.68
      ],
      [
       437671.81,
       4476984.18
      ],
      [
       437671.65,
       4476983.66
      ],
      [
       437671.53,
       4476983.12
      ],
      [
       437671.46,
       4476982.58
      ],
      [
       437671.43,
       4476982.04
      ],
      [
       437671.53,
       4476980.96
      ],
      [
       437671.65,
       4476980.42
      ],
      [
       437671.81,
       4476979.9
      ],
      [
       437672.02,
       4476979.4
      ],
      [
       437672.27,
       4476978.92
      ],
      [
       437672.56,
       4476978.46
      ],
      [
       437672.89,
       4476978.02
      ],
      [
       437673.26,
       4476977.62
      ],
      [
       437673.66,
       4476977.25
      ],
      [
       437674.1,
       4476976.92
      ],
      [
       437674.56,
       4476976.63
      ],
      [
       437675.04,
       4476976.38
      ],
      [
       437675.54,
       4476976.17
      ],
      [
       437676.06,
       4476976.01
      ],
      [
       437676.6,
       4476975.89
      ],
      [
       437677.14,
       4476975.82
      ],
      [
       437677.68,
       4476975.79
      ],
      [
       437678.76,
       4476975.89
      ],
      [
       437679.3,
       4476976.01
      ],
      [
       437679.82,
       4476976.17
      ],
      [
       437680.32,
       4476976.38
      ],
      [
       437680.8,
       4476976.63
      ],
      [
       437681.26,
       4476976.92
      ],
      [
       437681.7,
       4476977.25
      ],
      [
       437682.1,
       4476977.62
      ],
      [
       437682.47,
       4476978.02
      ],
      [
       437682.8,
       4476978.46
      ],
      [
       437683.09,
       4476978.92
      ],
      [
       437683.34,
       4476979.4
      ],
      [
       437683.55,
       4476979.9
      ],
      [
       437683.71,
       4476980.42
      ],
      [
       437683.83,
       4476980.96
      ],
      [
       437683.9,
       4476981.5
      ],
      [
       437683.93,
       4476982.04
      ],
      [
       437683.83,
       4476983.12
      ],
      [
       437683.71,
       4476983.66
      ],
      [
       437683.55,
       4476984.18
      ],
      [
       437683.34,
       4476984.68
      ],
      [
       437683.09,
       4476985.16
      ],
      [
       437682.8,
       4476985.62
      ],
      [
       437682.47,
       4476986.06
      ],
      [
       437682.1,
       4476986.46
      ],
      [
       437681.7,
       4476986.83
      ],
      [
       437681.26,
       4476987.16
      ],
      [
       437680.8,
       4476987.45
      ],
      [
       437680.65,
       4476986.21
      ],
      [
       437680.95,
       4476985.97
      ],
      [
       437681.39,
       4476985.54
      ],
      [
       437680.72,
       4476984.8
      ],
      [
       437681.26,
       4476983.96
      ],
      [
       437681.64,
       4476984.17
      ],
      [
       437681.91,
       4476983.58
      ],
      [
       437682.03,
       4476983.2
      ],
      [
       437682.16,
       4476982.43
      ],
      [
       437682.18,
       4476982.04
      ],
      [
       437682.16,
       4476981.65
      ],
      [
       437682.03,
       4476980.88
      ],
      [
       437681.91,
       4476980.5
      ],
      [
       437681.58,
       4476979.79
      ],
      [
       437681.37,
       4476979.46
      ],
      [
       437680.86,
       4476978.86
      ],
      [
       437680.26,
       4476978.35
      ],
      [
       437679.93,
       4476978.14
      ],
      [
       437679.22,
       4476977.81
      ],
      [
       437678.84,
       4476977.69
      ],
      [
       437678.07,
       4476977.56
      ],
      [
       437677.68,
       4476977.54
      ],
      [
       437677.29,
       4476977.56
      ],
      [
       437676.52,
       4476977.69
      ],
      [
       437676.14,
       4476977.81
      ],
      [
       437675.43,
       4476978.14
      ],
      [
       437675.1,
       4476978.35
      ],
      [
       437674.5,
       4476978.86
      ],
      [
       437673.99,
       4476979.46
      ],
      [
       437673.78,
       4476979.79
      ],
      [
       437673.45,
       4476980.5
      ],
      [
       437673.25,
       4476981.26
      ],
      [
       437673.18,
       4476982.04
      ],
      [
       437673.25,
       4476982.82
      ],
      [
       437673.33,
       4476983.2
      ],
      [
       437673.6,
       4476983.94
      ],
      [
       437673.85,
       4476984.4
      ],
      [
       437674.18,
       4476984.22
      ],
      [
       437674.81,
       4476984.99
      ],
      [
       437674.24,
       4476985.81
      ],
      [
       437675.15,
       4476986.51
      ],
      [
       437675.47,
       4476986.66
      ],
      [
       437675.54,
       4476987.91
      ],
      [
       437675.04,
       4476987.7
      ],
      [
       437674.56,
       4476987.45
      ],
      [
       437674.1,
       4476987.16
      ],
      [
       437673.66,
       4476986.83
      ]
     ],
     [
      [
       437678.08,
       4476983.56
      ],
      [
       437677.56,
       4476983.6
      ],
      [
       437677.3,
       4476983.56
      ],
      [
       437676.94,
       4476983.41
      ],
      [
       437676.63,
       4476983.17
      ],
      [
       437676.46,
       4476982.97
      ],
      [
       437676.33,
       4476982.74
      ],
      [
       437676.24,
       4476982.5
      ],
      [
       437676.19,
       4476982.11
      ],
      [
       437676.2,
       4476981.98
      ],
      [
       437676.24,
       4476981.72
      ],
      [
       437676.39,
       4476981.36
      ],
      [
       437676.63,
       4476981.05
      ],
      [
       437676.83,
       4476980.88
      ],
      [
       437677.06,
       4476980.75
      ],
      [
       437677.3,
       4476980.66
      ],
      [
       437677.82,
       4476980.62
      ],
      [
       437678.08,
       4476980.66
      ],
      [
       437678.44,
       4476980.81
      ],
      [
       437678.75,
       4476981.05
      ],
      [
       437678.92,
       4476981.25
      ],
      [
       437679.14,
       4476981.72
      ],
      [
       437679.18,
       4476981.98
      ],
      [
       437679.18,
       4476982.24
      ],
      [
       437679.14,
       4476982.5
      ],
      [
       437678.99,
       4476982.86
      ],
      [
       437678.75,
       4476983.17
      ],
      [
       437678.55,
       4476983.34
      ],
      [
       437678.32,
       4476983.47
      ],
      [
       437678.08,
       4476983.56
      ]
     ]
    ]
   }
  },
  {
   "type": "Feature",
   "properties": {
    "beginLifespanVersion": "2021-02-25T00:00:00",
    "addresses": "http://ovc.catastro.meh.es/INSPIRE/wfsAD.aspx?service=wfs&version=2&request=GetFeature&STOREDQUERIE_ID=GetadByRefcat&refcat=7773607VK3777D&srsname=EPSG::25830",
    "cadastralParcels": "http://ovc.catastro.meh.es/INSPIRE/wfsCP.aspx?service=wfs&version=2&request=GetFeature&STOREDQUERIE_ID=GetParcel&refcat=7773607VK3777D&srsname=EPSG::25830",
    "numberOfFloorsAboveGround": "1",
    "heightBelowGround": "3",
    "numberOfFloorsBelowGround": "1",
    "localId": "7773607VK3777D_part12",
    "area_m2": 89.02,
    "dist_center_m": 18.9
   },
   "geometry": {
    "type": "Polygon",
    "coordinates": [
     [
      [
       437680.7,
       4476958.11
      ],
      [
       437678.79,
       4476957.95
      ],
      [
       437677.6,
       4476957.91
      ],
      [
       437675.82,
       4476957.97
      ],
      [
       437674.63,
       4476958.09
      ],
      [
       437673.45,
       4476958.28
      ],
      [
       437671.71,
       4476958.67
      ],
      [
       437669.74,
       4476959.29
      ],
      [
       437673.47,
       4476969.18
      ],
      [
       437674.45,
       4476968.9
      ],
      [
       437675.36,
       4476968.71
      ],
      [
       437675.82,
       4476968.63
      ],
      [
       437677.22,
       4476968.51
      ],
      [
       437678.16,
       4476968.51
      ],
      [
       437679.09,
       4476968.57
      ],
      [
       437680.7,
       4476958.11
      ]
     ]
    ]
   }
  },
  {
   "type": "Feature",
   "properties": {
    "beginLifespanVersion": "2021-02-25T00:00:00",
    "addresses": "http://ovc.catastro.meh.es/INSPIRE/wfsAD.aspx?service=wfs&version=2&request=GetFeature&STOREDQUERIE_ID=GetadByRefcat&refcat=7773607VK3777D&srsname=EPSG::25830",
    "cadastralParcels": "http://ovc.catastro.meh.es/INSPIRE/wfsCP.aspx?service=wfs&version=2&request=GetFeature&STOREDQUERIE_ID=GetParcel&refcat=7773607VK3777D&srsname=EPSG::25830",
    "numberOfFloorsAboveGround": "2",
    "heightBelowGround": "3",
    "numberOfFloorsBelowGround": "1",
    "localId": "7773607VK3777D_part13",
    "area_m2": 49.1,
    "dist_center_m": 5.2
   },
   "geometry": {
    "type": "Polygon",
    "coordinates": [
     [
      [
       437673.66,
       4476986.83
      ],
      [
       437674.1,
       4476987.16
      ],
      [
       437674.56,
       4476987.45
      ],
      [
       437675.04,
       4476987.7
      ],
      [
       437675.54,
       4476987.91
      ],
      [
       437675.47,
       4476986.66
      ],
      [
       437675.15,
       4476986.51
      ],
      [
       437674.24,
       4476985.81
      ],
      [
       437674.81,
       4476984.99
      ],
      [
       437674.18,
       4476984.22
      ],
      [
       437673.85,
       4476984.4
      ],
      [
       437673.6,
       4476983.94
      ],
      [
       437673.33,
       4476983.2
      ],
      [
       437673.25,
       4476982.82
      ],
      [
       437673.18,
       4476982.04
      ],
      [
       437673.25,
       4476981.26
      ],
      [
       437673.45,
       4476980.5
      ],
      [
       437673.78,
       4476979.79
      ],
      [
       437673.99,
       4476979.46
      ],
      [
       437674.5,
       4476978.86
      ],
      [
       437675.1,
       4476978.35
      ],
      [
       437675.43,
       4476978.14
      ],
      [
       437676.14,
       4476977.81
      ],
      [
       437676.52,
       4476977.69
      ],
      [
       437677.29,
       4476977.56
      ],
      [
       437677.68,
       4476977.54
      ],
      [
       437678.07,
       4476977.56
      ],
      [
       437678.84,
       4476977.69
      ],
      [
       437679.22,
       4476977.81
      ],
      [
       437679.93,
       4476978.14
      ],
      [
       437680.26,
       4476978.35
      ],
      [
       437680.86,
       4476978.86
      ],
      [
       437681.37,
       4476979.46
      ],
      [
       437681.58,
       4476979.79
      ],
      [
       437681.91,
       4476980.5
      ],
      [
       437682.03,
       4476980.88
      ],
      [
       437682.16,
       4476981.65
      ],
      [
       437682.18,
       4476982.04
      ],
      [
       437682.16,
       4476982.43
      ],
      [
       437682.03,
       4476983.2
      ],
      [
       437681.91,
       4476983.58
      ],
      [
       437681.64,
       4476984.17
      ],
      [
       437681.26,
       4476983.96
      ],
      [
       437680.72,
       4476984.8
      ],
      [
       437681.39,
       4476985.54
      ],
      [
       437680.95,
       4476985.97
      ],
      [
       437680.65,
       4476986.21
      ],
      [
       437680.8,
       4476987.45
      ],
      [
       437681.26,
       4476987.16
      ],
      [
       437681.7,
       4476986.83
      ],
      [
       437682.1,
       4476986.46
      ],
      [
       437682.47,
       4476986.06
      ],
      [
       437682.8,
       4476985.62
      ],
      [
       437683.09,
       4476985.16
      ],
      [
       437683.34,
       4476984.68
      ],
      [
       437683.55,
       4476984.18
      ],
      [
       437683.71,
       4476983.66
      ],
      [
       437683.83,
       4476983.12
      ],
      [
       437683.93,
       4476982.04
      ],
      [
       437683.9,
       4476981.5
      ],
      [
       437683.83,
       4476980.96
      ],
      [
       437683.71,
       4476980.42
      ],
      [
       437683.55,
       4476979.9
      ],
      [
       437683.34,
       4476979.4
      ],
      [
       437683.09,
       4476978.92
      ],
      [
       437682.8,
       4476978.46
      ],
      [
       437682.47,
       4476978.02
      ],
      [
       437682.1,
       4476977.62
      ],
      [
       437681.7,
       4476977.25
      ],
      [
       437681.26,
       4476976.92
      ],
      [
       437680.8,
       4476976.63
      ],
      [
       437680.32,
       4476976.38
      ],
      [
       437679.82,
       4476976.17
      ],
      [
       437679.3,
       4476976.01
      ],
      [
       437678.76,
       4476975.89
      ],
      [
       437677.68,
       4476975.79
      ],
      [
       437677.14,
       4476975.82
      ],
      [
       437676.6,
       4476975.89
      ],
      [
       437676.06,
       4476976.01
      ],
      [
       437675.54,
       4476976.17
      ],
      [
       437675.04,
       4476976.38
      ],
      [
       437674.56,
       4476976.63
      ],
      [
       437674.1,
       4476976.92
      ],
      [
       437673.66,
       4476977.25
      ],
      [
       437673.26,
       4476977.62
      ],
      [
       437672.89,
       4476978.02
      ],
      [
       437672.56,
       4476978.46
      ],
      [
       437672.27,
       4476978.92
      ],
      [
       437672.02,
       4476979.4
      ],
      [
       437671.81,
       4476979.9
      ],
      [
       437671.65,
       4476980.42
      ],
      [
       437671.53,
       4476980.96
      ],
      [
       437671.43,
       4476982.04
      ],
      [
       437671.46,
       4476982.58
      ],
      [
       437671.53,
       4476983.12
      ],
      [
       437671.65,
       4476983.66
      ],
      [
       437671.81,
       4476984.18
      ],
      [
       437672.02,
       4476984.68
      ],
      [
       437672.27,
       4476985.16
      ],
      [
       437672.56,
       4476985.62
      ],
      [
       437672.89,
       4476986.06
      ],
      [
       437673.26,
       4476986.46
      ],
      [
       437673.66,
       4476986.83
      ]
     ]
    ]
   }
  },
  {
   "type": "Feature",
   "properties": {
    "beginLifespanVersion": "2021-02-25T00:00:00",
    "addresses": "http://ovc.catastro.meh.es/INSPIRE/wfsAD.aspx?service=wfs&version=2&request=GetFeature&STOREDQUERIE_ID=GetadByRefcat&refcat=7773607VK3777D&srsname=EPSG::25830",
    "cadastralParcels": "http://ovc.catastro.meh.es/INSPIRE/wfsCP.aspx?service=wfs&version=2&request=GetFeature&STOREDQUERIE_ID=GetParcel&refcat=7773607VK3777D&srsname=EPSG::25830",
    "numberOfFloorsAboveGround": "4",
    "heightBelowGround": "3",
    "numberOfFloorsBelowGround": "1",
    "localId": "7773607VK3777D_part14",
    "area_m2": 175.46,
    "dist_center_m": 29.8
   },
   "geometry": {
    "type": "Polygon",
    "coordinates": [
     [
      [
       437675.32,
       4477005.7
      ],
      [
       437674.75,
       4477020.35
      ],
      [
       437676.36,
       4477020.43
      ],
      [
       437678.02,
       4477020.44
      ],
      [
       437679.69,
       4477020.38
      ],
      [
       437681.35,
       4477020.25
      ],
      [
       437683.0,
       4477020.04
      ],
      [
       437684.64,
       4477019.76
      ],
      [
       437686.27,
       4477019.41
      ],
      [
       437687.88,
       4477018.99
      ],
      [
       437688.82,
       4477018.7
      ],
      [
       437685.05,
       4477004.72
      ],
      [
       437683.45,
       4477005.17
      ],
      [
       437682.24,
       4477005.43
      ],
      [
       437680.41,
       4477005.7
      ],
      [
       437679.17,
       4477005.8
      ],
      [
       437677.94,
       4477005.83
      ],
      [
       437676.7,
       4477005.81
      ],
      [
       437675.32,
       4477005.7
      ]
     ]
    ]
   }
  },
  {
   "type": "Feature",
   "properties": {
    "beginLifespanVersion": "2021-02-25T00:00:00",
    "addresses": "http://ovc.catastro.meh.es/INSPIRE/wfsAD.aspx?service=wfs&version=2&request=GetFeature&STOREDQUERIE_ID=GetadByRefcat&refcat=7773607VK3777D&srsname=EPSG::25830",
    "cadastralParcels": "http://ovc.catastro.meh.es/INSPIRE/wfsCP.aspx?service=wfs&version=2&request=GetFeature&STOREDQUERIE_ID=GetParcel&refcat=7773607VK3777D&srsname=EPSG::25830",
    "numberOfFloorsAboveGround": "4",
    "heightBelowGround": "3",
    "numberOfFloorsBelowGround": "1",
    "localId": "7773607VK3777D_part15",
    "area_m2": 5.94,
    "dist_center_m": 11.7
   },
   "geometry": {
    "type": "Polygon",
    "coordinates": [
     [
      [
       437678.05,
       4476995.87
      ],
      [
       437678.98,
       4476995.82
      ],
      [
       437680.22,
       4476995.65
      ],
      [
       437679.83,
       4476992.93
      ],
      [
       437679.68,
       4476992.68
      ],
      [
       437679.45,
       4476992.49
      ],
      [
       437679.17,
       4476992.4
      ],
      [
       437679.02,
       4476992.39
      ],
      [
       437678.87,
       4476992.41
      ],
      [
       437678.6,
       4476992.52
      ],
      [
       437678.39,
       4476992.73
      ],
      [
       437678.26,
       4476992.99
      ],
      [
       437678.05,
       4476995.87
      ]
     ]
    ]
   }
  },
  {
   "type": "Feature",
   "properties": {
    "beginLifespanVersion": "2021-02-25T00:00:00",
    "addresses": "http://ovc.catastro.meh.es/INSPIRE/wfsAD.aspx?service=wfs&version=2&request=GetFeature&STOREDQUERIE_ID=GetadByRefcat&refcat=7773607VK3777D&srsname=EPSG::25830",
    "cadastralParcels": "http://ovc.catastro.meh.es/INSPIRE/wfsCP.aspx?service=wfs&version=2&request=GetFeature&STOREDQUERIE_ID=GetParcel&refcat=7773607VK3777D&srsname=EPSG::25830",
    "numberOfFloorsAboveGround": "1",
    "heightBelowGround": "3",
    "numberOfFloorsBelowGround": "1",
    "localId": "7773607VK3777D_part16",
    "area_m2": 82.97,
    "dist_center_m": 17.7
   },
   "geometry": {
    "type": "Polygon",
    "coordinates": [
     [
      [
       437678.05,
       4476995.87
      ],
      [
       437676.64,
       4476995.83
      ],
      [
       437675.71,
       4476995.72
      ],
      [
       437675.32,
       4477005.7
      ],
      [
       437676.7,
       4477005.81
      ],
      [
       437677.94,
       4477005.83
      ],
      [
       437679.17,
       4477005.8
      ],
      [
       437680.41,
       4477005.7
      ],
      [
       437682.24,
       4477005.43
      ],
      [
       437683.45,
       4477005.17
      ],
      [
       437685.05,
       4477004.72
      ],
      [
       437682.4,
       4476995.06
      ],
      [
       437681.28,
       4476995.41
      ],
      [
       437680.22,
       4476995.65
      ],
      [
       437678.98,
       4476995.82
      ],
      [
       437678.05,
       4476995.87
      ]
     ]
    ]
   }
  },
  {
   "type": "Feature",
   "properties": {
    "beginLifespanVersion": "2021-02-25T00:00:00",
    "addresses": "http://ovc.catastro.meh.es/INSPIRE/wfsAD.aspx?service=wfs&version=2&request=GetFeature&STOREDQUERIE_ID=GetadByRefcat&refcat=7773607VK3777D&srsname=EPSG::25830",
    "cadastralParcels": "http://ovc.catastro.meh.es/INSPIRE/wfsCP.aspx?service=wfs&version=2&request=GetFeature&STOREDQUERIE_ID=GetParcel&refcat=7773607VK3777D&srsname=EPSG::25830",
    "numberOfFloorsAboveGround": "4",
    "heightBelowGround": "3",
    "numberOfFloorsBelowGround": "1",
    "localId": "7773607VK3777D_part17",
    "area_m2": 4.86,
    "dist_center_m": 12.7
   },
   "geometry": {
    "type": "Polygon",
    "coordinates": [
     [
      [
       437677.22,
       4476968.51
      ],
      [
       437675.82,
       4476968.63
      ],
      [
       437675.36,
       4476968.71
      ],
      [
       437676.02,
       4476971.38
      ],
      [
       437676.07,
       4476971.49
      ],
      [
       437676.22,
       4476971.67
      ],
      [
       437676.32,
       4476971.74
      ],
      [
       437676.54,
       4476971.82
      ],
      [
       437676.78,
       4476971.82
      ],
      [
       437676.9,
       4476971.79
      ],
      [
       437677.1,
       4476971.67
      ],
      [
       437677.25,
       4476971.48
      ],
      [
       437677.32,
       4476971.26
      ],
      [
       437677.22,
       4476968.51
      ]
     ]
    ]
   }
  },
  {
   "type": "Feature",
   "properties": {
    "beginLifespanVersion": "2021-02-25T00:00:00",
    "addresses": "http://ovc.catastro.meh.es/INSPIRE/wfsAD.aspx?service=wfs&version=2&request=GetFeature&STOREDQUERIE_ID=GetadByRefcat&refcat=7773607VK3777D&srsname=EPSG::25830",
    "cadastralParcels": "http://ovc.catastro.meh.es/INSPIRE/wfsCP.aspx?service=wfs&version=2&request=GetFeature&STOREDQUERIE_ID=GetParcel&refcat=7773607VK3777D&srsname=EPSG::25830",
    "numberOfFloorsAboveGround": "1",
    "heightBelowGround": "0",
    "numberOfFloorsBelowGround": "0",
    "localId": "7773607VK3777D_part18",
    "area_m2": 7.0,
    "dist_center_m": 0.7
   },
   "geometry": {
    "type": "Polygon",
    "coordinates": [
     [
      [
       437678.08,
       4476983.56
      ],
      [
       437678.32,
       4476983.47
      ],
      [
       437678.55,
       4476983.34
      ],
      [
       437678.75,
       4476983.17
      ],
      [
       437678.99,
       4476982.86
      ],
      [
       437679.14,
       4476982.5
      ],
      [
       437679.18,
       4476982.24
      ],
      [
       437679.18,
       4476981.98
      ],
      [
       437679.14,
       4476981.72
      ],
      [
       437678.92,
       4476981.25
      ],
      [
       437678.75,
       4476981.05
      ],
      [
       437678.44,
       4476980.81
      ],
      [
       437678.08,
       4476980.66
      ],
      [
       437677.82,
       4476980.62
      ],
      [
       437677.3,
       4476980.66
      ],
      [
       437677.06,
       4476980.75
      ],
      [
       437676.83,
       4476980.88
      ],
      [
       437676.63,
       4476981.05
      ],
      [
       437676.39,
       4476981.36
      ],
      [
       437676.24,
       4476981.72
      ],
      [
       437676.2,
       4476981.98
      ],
      [
       437676.19,
       4476982.11
      ],
      [
       437676.24,
       4476982.5
      ],
      [
       437676.33,
       4476982.74
      ],
      [
       437676.46,
       4476982.97
      ],
      [
       437676.63,
       4476983.17
      ],
      [
       437676.94,
       4476983.41
      ],
      [
       437677.3,
       4476983.56
      ],
      [
       437677.56,
       4476983.6
      ],
      [
       437678.08,
       4476983.56
      ]
     ]
    ]
   }
  },
  {
   "type": "Feature",
   "properties": {
    "beginLifespanVersion": "2021-02-25T00:00:00",
    "addresses": "http://ovc.catastro.meh.es/INSPIRE/wfsAD.aspx?service=wfs&version=2&request=GetFeature&STOREDQUERIE_ID=GetadByRefcat&refcat=7773607VK3777D&srsname=EPSG::25830",
    "cadastralParcels": "http://ovc.catastro.meh.es/INSPIRE/wfsCP.aspx?service=wfs&version=2&request=GetFeature&STOREDQUERIE_ID=GetParcel&refcat=7773607VK3777D&srsname=EPSG::25830",
    "numberOfFloorsAboveGround": "3",
    "heightBelowGround": "0",
    "numberOfFloorsBelowGround": "0",
    "localId": "7773607VK3777D_part19",
    "area_m2": 13.85,
    "dist_center_m": 34.9
   },
   "geometry": {
    "type": "Polygon",
    "coordinates": [
     [
      [
       437681.96,
       4476947.02
      ],
      [
       437681.76,
       4476949.51
      ],
      [
       437682.76,
       4476950.85
      ],
      [
       437683.56,
       4476950.91
      ],
      [
       437684.75,
       4476949.75
      ],
      [
       437685.35,
       4476944.8
      ],
      [
       437681.96,
       4476947.02
      ]
     ]
    ]
   }
  },
  {
   "type": "Feature",
   "properties": {
    "beginLifespanVersion": "2021-02-25T00:00:00",
    "addresses": "http://ovc.catastro.meh.es/INSPIRE/wfsAD.aspx?service=wfs&version=2&request=GetFeature&STOREDQUERIE_ID=GetadByRefcat&refcat=7773607VK3777D&srsname=EPSG::25830",
    "cadastralParcels": "http://ovc.catastro.meh.es/INSPIRE/wfsCP.aspx?service=wfs&version=2&request=GetFeature&STOREDQUERIE_ID=GetParcel&refcat=7773607VK3777D&srsname=EPSG::25830",
    "numberOfFloorsAboveGround": "1",
    "heightBelowGround": "0",
    "numberOfFloorsBelowGround": "0",
    "localId": "7773607VK3777D_part20",
    "area_m2": 74.09,
    "dist_center_m": 20.2
   },
   "geometry": {
    "type": "Polygon",
    "coordinates": [
     [
      [
       437686.89,
       4476972.0
      ],
      [
       437687.42,
       4476972.51
      ],
      [
       437688.06,
       4476973.19
      ],
      [
       437688.93,
       4476974.29
      ],
      [
       437689.67,
       4476975.48
      ],
      [
       437690.11,
       4476976.31
      ],
      [
       437699.45,
       4476971.89
      ],
      [
       437699.0,
       4476970.97
      ],
      [
       437698.4,
       4476969.89
      ],
      [
       437697.4,
       4476968.33
      ],
      [
       437696.67,
       4476967.34
      ],
      [
       437695.89,
       4476966.38
      ],
      [
       437695.48,
       4476965.92
      ],
      [
       437694.3,
       4476964.71
      ],
      [
       437686.89,
       4476972.0
      ]
     ]
    ]
   }
  },
  {
   "type": "Feature",
   "properties": {
    "beginLifespanVersion": "2021-02-25T00:00:00",
    "addresses": "http://ovc.catastro.meh.es/INSPIRE/wfsAD.aspx?service=wfs&version=2&request=GetFeature&STOREDQUERIE_ID=GetadByRefcat&refcat=7773607VK3777D&srsname=EPSG::25830",
    "cadastralParcels": "http://ovc.catastro.meh.es/INSPIRE/wfsCP.aspx?service=wfs&version=2&request=GetFeature&STOREDQUERIE_ID=GetParcel&refcat=7773607VK3777D&srsname=EPSG::25830",
    "numberOfFloorsAboveGround": "1",
    "heightBelowGround": "0",
    "numberOfFloorsBelowGround": "0",
    "localId": "7773607VK3777D_part21",
    "area_m2": 76.82,
    "dist_center_m": 18.9
   },
   "geometry": {
    "type": "Polygon",
    "coordinates": [
     [
      [
       437691.17,
       4476984.85
      ],
      [
       437690.94,
       4476985.83
      ],
      [
       437690.66,
       4476986.73
      ],
      [
       437690.32,
       4476987.6
      ],
      [
       437689.7,
       4476988.86
      ],
      [
       437688.95,
       4476990.05
      ],
      [
       437697.29,
       4476995.78
      ],
      [
       437697.76,
       4476995.1
      ],
      [
       437698.41,
       4476994.05
      ],
      [
       437699.01,
       4476992.97
      ],
      [
       437699.55,
       4476991.86
      ],
      [
       437700.03,
       4476990.72
      ],
      [
       437700.46,
       4476989.56
      ],
      [
       437700.82,
       4476988.38
      ],
      [
       437701.11,
       4476987.24
      ],
      [
       437691.17,
       4476984.85
      ]
     ]
    ]
   }
  },
  {
   "type": "Feature",
   "properties": {
    "beginLifespanVersion": "2021-02-25T00:00:00",
    "addresses": "http://ovc.catastro.meh.es/INSPIRE/wfsAD.aspx?service=wfs&version=2&request=GetFeature&STOREDQUERIE_ID=GetadByRefcat&refcat=7773607VK3777D&srsname=EPSG::25830",
    "cadastralParcels": "http://ovc.catastro.meh.es/INSPIRE/wfsCP.aspx?service=wfs&version=2&request=GetFeature&STOREDQUERIE_ID=GetParcel&refcat=7773607VK3777D&srsname=EPSG::25830",
    "numberOfFloorsAboveGround": "5",
    "heightBelowGround": "0",
    "numberOfFloorsBelowGround": "0",
    "localId": "7773607VK3777D_part22",
    "area_m2": 117.15,
    "dist_center_m": 32.5
   },
   "geometry": {
    "type": "Polygon",
    "coordinates": [
     [
      [
       437709.32,
       4476967.21
      ],
      [
       437704.35,
       4476969.57
      ],
      [
       437704.78,
       4476970.51
      ],
      [
       437705.27,
       4476971.72
      ],
      [
       437705.7,
       4476972.94
      ],
      [
       437706.07,
       4476974.17
      ],
      [
       437706.4,
       4476975.42
      ],
      [
       437706.66,
       4476976.67
      ],
      [
       437706.88,
       4476977.98
      ],
      [
       437707.04,
       4476979.28
      ],
      [
       437707.14,
       4476980.54
      ],
      [
       437707.18,
       4476981.85
      ],
      [
       437707.17,
       4476983.15
      ],
      [
       437707.1,
       4476984.42
      ],
      [
       437706.98,
       4476985.72
      ],
      [
       437706.8,
       4476986.99
      ],
      [
       437706.5,
       4476988.53
      ],
      [
       437711.85,
       4476989.82
      ],
      [
       437712.23,
       4476987.88
      ],
      [
       437712.44,
       4476986.37
      ],
      [
       437712.59,
       4476984.83
      ],
      [
       437712.67,
       4476983.31
      ],
      [
       437712.68,
       4476981.78
      ],
      [
       437712.63,
       4476980.23
      ],
      [
       437712.51,
       4476978.72
      ],
      [
       437712.32,
       4476977.19
      ],
      [
       437712.07,
       4476975.67
      ],
      [
       437711.76,
       4476974.17
      ],
      [
       437711.37,
       4476972.68
      ],
      [
       437710.93,
       4476971.22
      ],
      [
       437710.41,
       4476969.77
      ],
      [
       437709.84,
       4476968.34
      ],
      [
       437709.32,
       4476967.21
      ]
     ]
    ]
   }
  }
 ]
}